;FLAVOR:Marlin
;TIME:1303
;Filament used: 4.57296m
;Layer height: 0.5
;MINX:140.718
;MINY:17.25
;MINZ:0.5
;MAXX:159.296
;MAXY:282.75
;MAXZ:15
;Generated with Cura_SteamEngine 4.10.0
M140 S80
M105
M190 S80
M104 S240
M105
M109 S240
M82 ;absolute extrusion mode
M201 X500.00 Y500.00 Z100.00 E5000.00 ;Setup machine max acceleration
M203 X500.00 Y500.00 Z10.00 E50.00 ;Setup machine max feedrate
M204 P500.00 R1000.00 T500.00 ;Setup Print/Retract/Travel acceleration
M205 X8.00 Y8.00 Z0.40 E5.00 ;Setup Jerk
M220 S100 ;Reset Feedrate
M221 S100 ;Reset Flowrate

G28 ;Home

G92 E0 ;Reset Extruder
G1 Z2.0 F3000 ;Move Z Axis up
G1 X10.1 Y20 Z0.28 F5000.0 ;Move to start position
G1 X10.1 Y200.0 Z0.28 F1500.0 E15 ;Draw the first line
G1 X10.4 Y200.0 Z0.28 F5000.0 ;Move to side a little
G1 X10.4 Y20 Z0.28 F1500.0 E30 ;Draw the second line
G92 E0 ;Reset Extruder
G1 Z2.0 F3000 ;Move Z Axis up

G92 E0
G92 E0
G1 F2400 E-1.5
;LAYER_COUNT:30
;LAYER:0
M107
G0 F6000 X140.805 Y20.868 Z0.5
;TYPE:SKIRT
G1 F2400 E1.87069
G1 F900 X140.919 Y20.423 E1.98348
G1 X141.128 Y19.879 E2.12657
G1 X141.35 Y19.457 E2.24364
G1 X141.69 Y18.965 E2.39048
G1 X142.003 Y18.611 E2.5065
G1 X142.442 Y18.219 E2.651
G1 X142.816 Y17.957 E2.76312
G1 X143.337 Y17.678 E2.90823
G1 X143.788 Y17.501 E3.02718
G1 X144.355 Y17.352 E3.17113
G1 X144.799 Y17.29 E3.2812
G1 X145.102 Y17.266 E3.35583
G1 X146.079 Y17.25 E3.59574
G1 X150.165 Y17.251 E4.59897
G1 X150.829 Y17.26 E4.76201
G1 X150.981 Y17.267 E4.79937
G1 X151.607 Y17.314 E4.95351
G1 X152.057 Y17.359 E5.06455
G1 X152.421 Y17.423 E5.15529
G1 X153.101 Y17.596 E5.32757
G1 X153.5 Y17.708 E5.42932
G1 X153.845 Y17.833 E5.51941
G1 X154.472 Y18.115 E5.68822
G1 X154.855 Y18.3 E5.79265
G1 X155.167 Y18.479 E5.88096
G1 X155.666 Y18.816 E6.02881
G1 X156.095 Y19.125 E6.15862
G1 X156.37 Y19.355 E6.24664
G1 X156.86 Y19.831 E6.41437
G1 X157.156 Y20.135 E6.51855
G1 X157.388 Y20.411 E6.60707
G1 X157.8 Y20.98 E6.77956
G1 X158.037 Y21.33 E6.88334
G1 X158.213 Y21.633 E6.96938
G1 X158.521 Y22.266 E7.14222
G1 X158.697 Y22.659 E7.24794
G1 X158.818 Y22.993 E7.33517
G1 X159.011 Y23.67 E7.50801
G1 X159.112 Y24.068 E7.60883
G1 X159.175 Y24.423 E7.69735
G1 X159.246 Y25.108 E7.86644
G1 X159.276 Y25.508 E7.96493
G1 X159.283 Y25.655 E8.00106
G1 X159.296 Y26.509 E8.21077
G1 X159.295 Y260.094 E65.56249
G1 X159.283 Y260.938 E65.76974
G1 X159.21 Y263.472 E66.39217
G1 X159.21 Y266.233 E67.07007
G1 X159.252 Y267.775 E67.44881
G1 X159.247 Y267.86 E67.46972
G1 X159.296 Y269.58 E67.8922
G1 X159.296 Y277.579 E69.85618
G1 X159.286 Y278.276 E70.02733
G1 X159.26 Y278.632 E70.11497
G1 X159.245 Y278.762 E70.1471
G1 X159.197 Y279.092 E70.22898
G1 X159.051 Y279.642 E70.3687
G1 X158.855 Y280.141 E70.50033
G1 X158.823 Y280.215 E70.52012
G1 X158.531 Y280.718 E70.66293
G1 X158.219 Y281.136 E70.79099
G1 X157.772 Y281.597 E70.94865
G1 X157.454 Y281.85 E71.04843
G1 X157.28 Y281.98 E71.10176
G1 X156.813 Y282.248 E71.23396
G1 X156.362 Y282.444 E71.3547
G1 X156.278 Y282.478 E71.37695
G1 X155.712 Y282.633 E71.52103
G1 X155.17 Y282.713 E71.65555
G1 X154.868 Y282.74 E71.73
G1 X154.54 Y282.749 E71.81056
G1 X151.468 Y282.75 E72.56482
G1 X150.77 Y282.74 E72.73622
G1 X150.413 Y282.714 E72.8241
G1 X150.278 Y282.698 E72.85748
G1 X149.941 Y282.648 E72.94113
G1 X149.402 Y282.505 E73.07805
G1 X149.019 Y282.356 E73.17895
G1 X148.828 Y282.275 E73.22989
G1 X148.332 Y281.989 E73.37047
G1 X147.948 Y281.704 E73.48788
G1 X147.872 Y281.645 E73.5115
G1 X147.449 Y281.226 E73.65769
G1 X147.133 Y280.826 E73.78285
G1 X147.068 Y280.737 E73.80991
G1 X146.796 Y280.265 E73.94366
G1 X146.625 Y279.874 E74.04845
G1 X146.529 Y279.632 E74.11237
G1 X145.575 Y276.909 E74.82079
G1 X144.604 Y274.373 E75.48753
G1 X143.538 Y271.803 E76.17066
G1 X142.412 Y269.294 E76.84589
G1 X141.296 Y266.978 E77.4771
G1 X141.138 Y266.66 E77.56429
G1 X140.976 Y266.248 E77.67299
G1 X140.84 Y265.784 E77.7917
G1 X140.742 Y265.213 E77.93395
G1 X140.718 Y264.759 E78.04558
G1 X140.721 Y264.451 E78.1212
G1 X140.79 Y263.488 E78.35825
G1 X141.095 Y260.007 E79.21621
G1 X141.162 Y259.349 E79.3786
G1 X141.247 Y258.91 E79.48839
G1 X141.418 Y258.475 E79.60315
G1 X141.743 Y257.83 E79.78049
G1 X142.973 Y255.315 E80.46788
G1 X144.118 Y252.797 E81.14704
G1 X145.186 Y250.26 E81.82289
G1 X146.183 Y247.693 E82.49903
G1 X147.116 Y245.069 E83.18281
G1 X147.946 Y242.507 E83.84404
G1 X148.736 Y239.816 E84.53264
G1 X149.432 Y237.169 E85.20464
G1 X150.057 Y234.484 E85.88151
G1 X150.616 Y231.735 E86.57028
G1 X151.079 Y229.066 E87.23539
G1 X151.477 Y226.321 E87.91641
G1 X151.794 Y223.586 E88.59242
G1 X152.032 Y220.874 E89.26086
G1 X152.197 Y218.084 E89.94708
G1 X152.282 Y215.323 E90.6253
G1 X152.296 Y213.689 E91.02651
G1 X152.295 Y72.786 E125.62218
G1 X152.256 Y70.029 E126.29917
G1 X152.139 Y67.274 E126.97621
G1 X151.943 Y64.521 E127.65386
G1 X151.671 Y61.777 E128.33089
G1 X151.322 Y59.047 E129.00664
G1 X150.893 Y56.314 E129.68588
G1 X150.388 Y53.601 E130.36344
G1 X149.809 Y50.907 E131.04
G1 X149.159 Y48.256 E131.71018
G1 X148.425 Y45.59 E132.38911
G1 X147.612 Y42.933 E133.07134
G1 X146.729 Y40.315 E133.74971
G1 X145.777 Y37.738 E134.42423
G1 X144.746 Y35.167 E135.10435
G1 X143.664 Y32.681 E135.77004
G1 X142.475 Y30.144 E136.45796
G1 X141.824 Y28.855 E136.81252
G1 X141.405 Y27.999 E137.04652
G1 X141.245 Y27.582 E137.15618
G1 X141.168 Y27.196 E137.25282
G1 X141.124 Y26.816 E137.34674
G1 X140.772 Y22.791 E138.33877
G1 X140.725 Y22.152 E138.49608
G1 X140.718 Y21.922 E138.55258
G1 X140.727 Y21.441 E138.6707
G1 X140.805 Y20.868 E138.81269
G0 F6000 X141.774 Y21.116
G1 F900 X141.888 Y20.671 E138.92548
G1 X142.013 Y20.345 E139.0112
G1 X142.235 Y19.923 E139.12828
G1 X142.439 Y19.627 E139.21654
G1 X142.752 Y19.273 E139.33256
G1 X143.015 Y19.038 E139.41916
G1 X143.389 Y18.776 E139.53127
G1 X143.702 Y18.609 E139.61838
G1 X144.153 Y18.432 E139.73733
G1 X144.494 Y18.342 E139.82393
G1 X144.938 Y18.28 E139.934
G1 X145.119 Y18.266 E139.97857
G1 X146.078 Y18.25 E140.21407
G1 X150.151 Y18.251 E141.2141
G1 X150.815 Y18.26 E141.37715
G1 X150.907 Y18.264 E141.39976
G1 X151.507 Y18.309 E141.54749
G1 X151.957 Y18.354 E141.65853
G1 X152.176 Y18.393 E141.71315
G1 X152.83 Y18.559 E141.87881
G1 X153.229 Y18.671 E141.98056
G1 X153.437 Y18.746 E142.03485
G1 X154.037 Y19.015 E142.1963
G1 X154.42 Y19.2 E142.30073
G1 X154.608 Y19.308 E142.35397
G1 X155.145 Y19.672 E142.51325
G1 X155.509 Y19.935 E142.62351
G1 X155.674 Y20.073 E142.67632
G1 X156.144 Y20.529 E142.83711
G1 X156.44 Y20.833 E142.94129
G1 X156.579 Y20.998 E142.99426
G1 X156.972 Y21.541 E143.15883
G1 X157.209 Y21.891 E143.26262
G1 X157.314 Y22.073 E143.31421
G1 X157.608 Y22.675 E143.4787
G1 X157.784 Y23.068 E143.58443
G1 X157.857 Y23.268 E143.6367
G1 X158.042 Y23.916 E143.80216
G1 X158.143 Y24.314 E143.90298
G1 X158.181 Y24.527 E143.9561
G1 X158.249 Y25.183 E144.11803
G1 X158.279 Y25.583 E144.21652
G1 X158.283 Y25.671 E144.23815
G1 X158.296 Y26.509 E144.44393
G1 X158.295 Y260.08 E201.79221
G1 X158.283 Y260.909 E201.99578
G1 X158.21 Y263.435 E202.61624
G1 X158.21 Y266.264 E203.31084
G1 X158.252 Y267.802 E203.6886
G1 X158.246 Y267.87 E203.70536
G1 X158.296 Y269.58 E204.1254
G1 X158.296 Y277.565 E206.08594
G1 X158.286 Y278.262 E206.25709
G1 X158.265 Y278.54 E206.32554
G1 X158.207 Y278.948 E206.42672
G1 X158.12 Y279.278 E206.51052
G1 X157.937 Y279.744 E206.63344
G1 X157.905 Y279.818 E206.65324
G1 X157.73 Y280.12 E206.73893
G1 X157.418 Y280.538 E206.867
G1 X157.15 Y280.815 E206.96164
G1 X156.832 Y281.068 E207.06141
G1 X156.692 Y281.171 E207.10408
G1 X156.412 Y281.332 E207.18339
G1 X155.987 Y281.517 E207.29719
G1 X155.903 Y281.551 E207.31944
G1 X155.563 Y281.644 E207.40599
G1 X155.055 Y281.72 E207.53211
G1 X154.587 Y281.748 E207.64722
G1 X151.483 Y281.75 E208.40934
G1 X150.785 Y281.74 E208.58074
G1 X150.506 Y281.719 E208.64943
G1 X150.425 Y281.709 E208.66947
G1 X150.088 Y281.659 E208.75312
G1 X149.764 Y281.573 E208.83542
G1 X149.329 Y281.403 E208.9501
G1 X149.225 Y281.358 E208.97792
G1 X148.928 Y281.186 E209.06219
G1 X148.561 Y280.914 E209.17435
G1 X148.485 Y280.855 E209.19797
G1 X148.231 Y280.604 E209.28565
G1 X147.941 Y280.237 E209.40049
G1 X147.876 Y280.148 E209.42755
G1 X147.713 Y279.864 E209.50795
G1 X147.516 Y279.412 E209.62901
G1 X147.446 Y279.228 E209.67735
G1 X146.512 Y276.56 E210.3714
G1 X145.527 Y273.986 E211.04808
G1 X144.464 Y271.425 E211.72889
G1 X143.306 Y268.844 E212.42346
G1 X142.197 Y266.543 E213.05062
G1 X142.033 Y266.214 E213.14087
G1 X141.936 Y265.967 E213.20603
G1 X141.8 Y265.503 E213.32475
G1 X141.741 Y265.16 E213.4102
G1 X141.717 Y264.706 E213.52183
G1 X141.719 Y264.521 E213.56725
G1 X141.786 Y263.575 E213.8001
G1 X142.09 Y260.108 E214.65461
G1 X142.157 Y259.45 E214.81701
G1 X142.231 Y259.112 E214.90196
G1 X142.31 Y258.926 E214.95158
G1 X142.65 Y258.253 E215.13671
G1 X143.875 Y255.75 E215.82092
G1 X145.02 Y253.231 E216.5003
G1 X146.117 Y250.625 E217.19453
G1 X147.137 Y248 E217.88599
G1 X148.047 Y245.437 E218.55376
G1 X148.911 Y242.77 E219.24209
G1 X149.693 Y240.109 E219.92307
G1 X150.409 Y237.384 E220.61485
G1 X151.035 Y234.693 E221.2932
G1 X151.596 Y231.936 E221.984
G1 X152.071 Y229.197 E222.66654
G1 X152.465 Y226.478 E223.3411
G1 X152.791 Y223.671 E224.03493
G1 X153.032 Y220.914 E224.71443
G1 X153.197 Y218.138 E225.39722
G1 X153.282 Y215.362 E226.07913
G1 X153.296 Y213.697 E226.48795
G1 X153.295 Y72.786 E261.08559
G1 X153.256 Y70.022 E261.76429
G1 X153.136 Y67.196 E262.45878
G1 X152.942 Y64.459 E263.13248
G1 X152.663 Y61.645 E263.82678
G1 X152.312 Y58.906 E264.50478
G1 X151.879 Y56.152 E265.18928
G1 X151.366 Y53.389 E265.87926
G1 X150.789 Y50.708 E266.5526
G1 X150.122 Y47.985 E267.24094
G1 X149.38 Y45.293 E267.92655
G1 X148.573 Y42.652 E268.60458
G1 X147.669 Y39.973 E269.29879
G1 X146.718 Y37.397 E269.973
G1 X145.665 Y34.774 E270.66698
G1 X144.57 Y32.257 E271.34092
G1 X143.389 Y29.737 E272.02423
G1 X142.722 Y28.415 E272.38779
G1 X142.303 Y27.559 E272.62179
G1 X142.161 Y27.078 E272.74493
G1 X142.12 Y26.729 E272.83121
G1 X141.769 Y22.718 E273.81979
G1 X141.722 Y22.079 E273.9771
G1 X141.718 Y21.941 E274.011
G1 X141.727 Y21.46 E274.12912
G1 X141.774 Y21.116 E274.21437
G1 F2400 E272.71437
;MESH:hook.stl
G0 F6000 X144.094 Y260.137
;TYPE:WALL-OUTER
G1 F2400 E276.08506
G1 F900 X145.09 Y260.224 E276.33053
G1 X144.65 Y265.25 E277.56928
G1 X150.839 Y265.249 E279.08885
G1 X151.798 Y265.141 E279.3258
G1 X152.75 Y264.807 E279.57351
G1 X153.604 Y264.27 E279.8212
G1 X154.317 Y263.558 E280.06861
G1 X154.853 Y262.704 E280.31617
G1 X155.187 Y261.752 E280.56388
G1 X155.296 Y260.778 E280.80451
G1 X155.295 Y25.707 E338.52109
G1 X155.187 Y24.748 E338.75804
G1 X154.853 Y23.796 E339.00575
G1 X154.317 Y22.942 E339.25331
G1 X153.604 Y22.23 E339.50072
G1 X152.75 Y21.693 E339.7484
G1 X151.798 Y21.359 E339.99612
G1 X150.824 Y21.25 E340.23675
G1 X144.65 Y21.25 E341.75265
G1 X145.09 Y26.276 E342.99139
G1 X144.094 Y26.363 E343.23687
G1 X143.705 Y21.899 E344.33706
G1 X143.717 Y21.525 E344.42893
G1 X143.81 Y21.188 E344.51477
G1 X143.981 Y20.877 E344.60191
G1 X144.222 Y20.615 E344.68932
G1 X144.513 Y20.419 E344.77546
G1 X144.848 Y20.295 E344.86316
G1 X145.221 Y20.25 E344.95541
G1 X150.792 Y20.251 E346.32325
G1 X151.749 Y20.335 E346.55912
G1 X152.679 Y20.584 E346.79551
G1 X153.541 Y20.987 E347.02914
G1 X154.329 Y21.538 E347.26522
G1 X155.008 Y22.217 E347.50099
G1 X155.559 Y23.005 E347.73708
G1 X155.962 Y23.867 E347.97071
G1 X156.211 Y24.797 E348.20709
G1 X156.296 Y25.771 E348.44715
G1 X156.295 Y260.746 E406.14016
G1 X156.211 Y261.703 E406.37603
G1 X155.962 Y262.633 E406.61241
G1 X155.559 Y263.495 E406.84605
G1 X155.008 Y264.283 E407.08213
G1 X154.329 Y264.962 E407.3179
G1 X153.541 Y265.513 E407.55398
G1 X152.679 Y265.916 E407.78762
G1 X151.749 Y266.165 E408.024
G1 X150.296 Y266.292 E408.38211
G1 X150.296 Y278.75 E411.4409
G1 X155.296 Y278.75 E412.66855
G1 X155.296 Y269.75 E414.8783
G1 X156.296 Y269.75 E415.12383
G1 X156.296 Y278.215 E417.20223
G1 X156.241 Y278.637 E417.30671
G1 X156.092 Y278.996 E417.40215
G1 X155.853 Y279.307 E417.49845
G1 X155.542 Y279.546 E417.59476
G1 X155.183 Y279.695 E417.69019
G1 X154.761 Y279.75 E417.79468
G1 X150.832 Y279.75 E418.75936
G1 X150.408 Y279.694 E418.86437
G1 X150.051 Y279.546 E418.95926
G1 X149.739 Y279.307 E419.05575
G1 X149.5 Y278.996 E419.15206
G1 X149.351 Y278.637 E419.24749
G1 X149.296 Y278.215 E419.35198
G1 X149.296 Y266.25 E422.28973
G1 X145.221 Y266.25 E423.29025
G1 X144.848 Y266.205 E423.3825
G1 X144.513 Y266.081 E423.47021
G1 X144.222 Y265.885 E423.55635
G1 X143.981 Y265.623 E423.64375
G1 X143.81 Y265.312 E423.7309
G1 X143.717 Y264.975 E423.81673
G1 X143.705 Y264.587 E423.91204
G1 X144.094 Y260.137 E425.00881
;TIME_ELAPSED:121.740260
;LAYER:1
G1 F2400 E423.50881
M106 S21.3
;MESH:hook.stl
G0 F7500 X144.094 Y260.137 Z1
;TYPE:WALL-OUTER
G1 F2400 E426.8795
G1 F900 X145.09 Y260.224 E427.11329
G1 X144.65 Y265.25 E428.29305
G1 X150.824 Y265.25 E429.73675
G1 X151.798 Y265.141 E429.96593
G1 X152.75 Y264.807 E430.20185
G1 X153.604 Y264.27 E430.43774
G1 X154.317 Y263.558 E430.67336
G1 X154.853 Y262.704 E430.90913
G1 X155.187 Y261.752 E431.14505
G1 X155.296 Y260.778 E431.37423
G1 X155.296 Y25.722 E486.33889
G1 X155.187 Y24.748 E486.56807
G1 X154.853 Y23.796 E486.80398
G1 X154.317 Y22.942 E487.03975
G1 X153.604 Y22.23 E487.27537
G1 X152.75 Y21.693 E487.51127
G1 X151.798 Y21.359 E487.74718
G1 X150.824 Y21.25 E487.97636
G1 X144.65 Y21.25 E489.42007
G1 X145.09 Y26.276 E490.59983
G1 X144.094 Y26.363 E490.83361
G1 X143.705 Y21.913 E491.87816
G1 X143.717 Y21.525 E491.96893
G1 X143.81 Y21.188 E492.05068
G1 X143.981 Y20.877 E492.13367
G1 X144.222 Y20.615 E492.21691
G1 X144.513 Y20.419 E492.29895
G1 X144.848 Y20.295 E492.38248
G1 X145.222 Y20.25 E492.47057
G1 X150.775 Y20.25 E493.76906
G1 X151.749 Y20.335 E493.99768
G1 X152.679 Y20.584 E494.22281
G1 X153.541 Y20.987 E494.44532
G1 X154.329 Y21.538 E494.67016
G1 X155.008 Y22.217 E494.8947
G1 X155.559 Y23.005 E495.11954
G1 X155.962 Y23.867 E495.34205
G1 X156.211 Y24.797 E495.56718
G1 X156.296 Y25.771 E495.7958
G1 X156.296 Y260.729 E550.73755
G1 X156.211 Y261.703 E550.96617
G1 X155.962 Y262.633 E551.1913
G1 X155.559 Y263.495 E551.41381
G1 X155.008 Y264.283 E551.63865
G1 X154.329 Y264.962 E551.86319
G1 X153.541 Y265.513 E552.08803
G1 X152.679 Y265.916 E552.31054
G1 X151.749 Y266.165 E552.53567
G1 X150.296 Y266.292 E552.87673
G1 X150.296 Y278.75 E555.78986
G1 X155.296 Y278.75 E556.95904
G1 X155.296 Y269.75 E559.06357
G1 X156.296 Y269.75 E559.29741
G1 X156.296 Y278.215 E561.27683
G1 X156.241 Y278.637 E561.37635
G1 X156.092 Y278.996 E561.46724
G1 X155.853 Y279.307 E561.55895
G1 X155.542 Y279.546 E561.65067
G1 X155.183 Y279.695 E561.74156
G1 X154.761 Y279.75 E561.84107
G1 X150.832 Y279.75 E562.75982
G1 X150.408 Y279.694 E562.85983
G1 X150.051 Y279.546 E562.95019
G1 X149.739 Y279.307 E563.0421
G1 X149.5 Y278.996 E563.13381
G1 X149.351 Y278.637 E563.2247
G1 X149.296 Y278.215 E563.32422
G1 X149.296 Y266.25 E566.12207
G1 X145.221 Y266.25 E567.07496
G1 X144.848 Y266.205 E567.16281
G1 X144.513 Y266.081 E567.24634
G1 X144.222 Y265.885 E567.32838
G1 X143.981 Y265.623 E567.41162
G1 X143.81 Y265.312 E567.49461
G1 X143.717 Y264.975 E567.57636
G1 X143.705 Y264.587 E567.66713
G1 X144.094 Y260.137 E568.71167
;TIME_ELAPSED:162.679829
;LAYER:2
G1 F2400 E567.21167
M106 S42.5
;MESH:hook.stl
G0 F9000 X144.094 Y260.137 Z1.5
;TYPE:WALL-OUTER
G1 F2400 E570.58237
G1 F900 X145.09 Y260.224 E570.81615
G1 X144.65 Y265.25 E571.99591
G1 X150.824 Y265.25 E573.43962
G1 X151.798 Y265.141 E573.6688
G1 X152.75 Y264.807 E573.90471
G1 X153.604 Y264.27 E574.14061
G1 X154.317 Y263.558 E574.37623
G1 X154.853 Y262.704 E574.612
G1 X155.187 Y261.752 E574.84791
G1 X155.296 Y260.778 E575.07709
G1 X155.296 Y25.722 E630.04175
G1 X155.187 Y24.748 E630.27093
G1 X154.853 Y23.796 E630.50685
G1 X154.317 Y22.942 E630.74262
G1 X153.604 Y22.23 E630.97824
G1 X152.75 Y21.693 E631.21413
G1 X151.798 Y21.359 E631.45005
G1 X150.824 Y21.25 E631.67923
G1 X144.65 Y21.25 E633.12293
G1 X145.09 Y26.276 E634.30269
G1 X144.094 Y26.363 E634.53648
G1 X143.705 Y21.913 E635.58102
G1 X143.717 Y21.525 E635.67179
G1 X143.81 Y21.188 E635.75354
G1 X143.981 Y20.877 E635.83653
G1 X144.222 Y20.615 E635.91977
G1 X144.513 Y20.419 E636.00182
G1 X144.848 Y20.295 E636.08535
G1 X145.222 Y20.25 E636.17343
G1 X150.775 Y20.25 E637.47192
G1 X151.749 Y20.335 E637.70055
G1 X152.679 Y20.584 E637.92567
G1 X153.541 Y20.987 E638.14818
G1 X154.329 Y21.538 E638.37302
G1 X155.008 Y22.217 E638.59757
G1 X155.559 Y23.005 E638.82241
G1 X155.962 Y23.867 E639.04491
G1 X156.211 Y24.797 E639.27004
G1 X156.296 Y25.771 E639.49866
G1 X156.296 Y260.729 E694.44041
G1 X156.211 Y261.703 E694.66903
G1 X155.962 Y262.633 E694.89416
G1 X155.559 Y263.495 E695.11667
G1 X155.008 Y264.283 E695.34151
G1 X154.329 Y264.962 E695.56605
G1 X153.541 Y265.513 E695.79089
G1 X152.679 Y265.916 E696.0134
G1 X151.749 Y266.165 E696.23853
G1 X150.296 Y266.292 E696.57959
G1 X150.296 Y278.75 E699.49272
G1 X155.296 Y278.75 E700.66191
G1 X155.296 Y269.75 E702.76644
G1 X156.296 Y269.75 E703.00027
G1 X156.296 Y278.215 E704.9797
G1 X156.241 Y278.637 E705.07921
G1 X156.092 Y278.996 E705.1701
G1 X155.853 Y279.307 E705.26182
G1 X155.542 Y279.546 E705.35354
G1 X155.183 Y279.695 E705.44443
G1 X154.761 Y279.75 E705.54394
G1 X150.832 Y279.75 E706.46268
G1 X150.408 Y279.694 E706.56269
G1 X150.051 Y279.546 E706.65306
G1 X149.739 Y279.307 E706.74496
G1 X149.5 Y278.996 E706.83668
G1 X149.351 Y278.637 E706.92757
G1 X149.296 Y278.215 E707.02708
G1 X149.296 Y266.25 E709.82494
G1 X145.221 Y266.25 E710.77782
G1 X144.848 Y266.205 E710.86567
G1 X144.513 Y266.081 E710.9492
G1 X144.222 Y265.885 E711.03124
G1 X143.981 Y265.623 E711.11449
G1 X143.81 Y265.312 E711.19748
G1 X143.717 Y264.975 E711.27923
G1 X143.705 Y264.587 E711.37
G1 X144.094 Y260.137 E712.41454
;TIME_ELAPSED:203.619397
;LAYER:3
G1 F2400 E710.91454
M106 S63.8
;MESH:hook.stl
G0 F9000 X144.094 Y260.137 Z2
;TYPE:WALL-OUTER
G1 F2400 E714.28523
G1 F900 X145.09 Y260.224 E714.51902
G1 X144.65 Y265.25 E715.69878
G1 X150.824 Y265.25 E717.14248
G1 X151.798 Y265.141 E717.37166
G1 X152.75 Y264.807 E717.60758
G1 X153.604 Y264.27 E717.84347
G1 X154.317 Y263.558 E718.07909
G1 X154.853 Y262.704 E718.31486
G1 X155.187 Y261.752 E718.55078
G1 X155.296 Y260.778 E718.77996
G1 X155.296 Y25.722 E773.74462
G1 X155.187 Y24.748 E773.9738
G1 X154.853 Y23.796 E774.20971
G1 X154.317 Y22.942 E774.44548
G1 X153.604 Y22.23 E774.6811
G1 X152.75 Y21.693 E774.917
G1 X151.798 Y21.359 E775.15291
G1 X150.824 Y21.25 E775.38209
G1 X144.65 Y21.25 E776.8258
G1 X145.09 Y26.276 E778.00556
G1 X144.094 Y26.363 E778.23934
G1 X143.705 Y21.913 E779.28388
G1 X143.717 Y21.525 E779.37466
G1 X143.81 Y21.188 E779.45641
G1 X143.981 Y20.877 E779.5394
G1 X144.222 Y20.615 E779.62264
G1 X144.513 Y20.419 E779.70468
G1 X144.848 Y20.295 E779.78821
G1 X145.222 Y20.25 E779.8763
G1 X150.775 Y20.25 E781.17479
G1 X151.749 Y20.335 E781.40341
G1 X152.679 Y20.584 E781.62854
G1 X153.541 Y20.987 E781.85105
G1 X154.329 Y21.538 E782.07589
G1 X155.008 Y22.217 E782.30043
G1 X155.559 Y23.005 E782.52527
G1 X155.962 Y23.867 E782.74778
G1 X156.211 Y24.797 E782.97291
G1 X156.296 Y25.771 E783.20153
G1 X156.296 Y260.729 E838.14328
G1 X156.211 Y261.703 E838.3719
G1 X155.962 Y262.633 E838.59703
G1 X155.559 Y263.495 E838.81954
G1 X155.008 Y264.283 E839.04438
G1 X154.329 Y264.962 E839.26892
G1 X153.541 Y265.513 E839.49376
G1 X152.679 Y265.916 E839.71627
G1 X151.749 Y266.165 E839.9414
G1 X150.296 Y266.292 E840.28245
G1 X150.296 Y278.75 E843.19559
G1 X155.296 Y278.75 E844.36477
G1 X155.296 Y269.75 E846.4693
G1 X156.296 Y269.75 E846.70314
G1 X156.296 Y278.215 E848.68256
G1 X156.241 Y278.637 E848.78208
G1 X156.092 Y278.996 E848.87297
G1 X155.853 Y279.307 E848.96468
G1 X155.542 Y279.546 E849.0564
G1 X155.183 Y279.695 E849.14729
G1 X154.761 Y279.75 E849.2468
G1 X150.832 Y279.75 E850.16555
G1 X150.408 Y279.694 E850.26556
G1 X150.051 Y279.546 E850.35592
G1 X149.739 Y279.307 E850.44783
G1 X149.5 Y278.996 E850.53954
G1 X149.351 Y278.637 E850.63043
G1 X149.296 Y278.215 E850.72995
G1 X149.296 Y266.25 E853.5278
G1 X145.221 Y266.25 E854.48068
G1 X144.848 Y266.205 E854.56854
G1 X144.513 Y266.081 E854.65207
G1 X144.222 Y265.885 E854.73411
G1 X143.981 Y265.623 E854.81735
G1 X143.81 Y265.312 E854.90034
G1 X143.717 Y264.975 E854.98209
G1 X143.705 Y264.587 E855.07286
G1 X144.094 Y260.137 E856.1174
;TIME_ELAPSED:244.558966
;LAYER:4
G1 F2400 E854.6174
;MESH:hook.stl
G0 F9000 X144.094 Y260.137 Z2.5
;TYPE:WALL-OUTER
G1 F2400 E857.9881
G1 F900 X145.09 Y260.224 E858.22188
G1 X144.65 Y265.25 E859.40164
G1 X150.824 Y265.25 E860.84535
G1 X151.798 Y265.141 E861.07453
G1 X152.75 Y264.807 E861.31044
G1 X153.604 Y264.27 E861.54634
G1 X154.317 Y263.558 E861.78196
G1 X154.853 Y262.704 E862.01773
G1 X155.187 Y261.752 E862.25364
G1 X155.296 Y260.778 E862.48282
G1 X155.296 Y25.722 E917.44748
G1 X155.187 Y24.748 E917.67666
G1 X154.853 Y23.796 E917.91258
G1 X154.317 Y22.942 E918.14835
G1 X153.604 Y22.23 E918.38397
G1 X152.75 Y21.693 E918.61986
G1 X151.798 Y21.359 E918.85578
G1 X150.824 Y21.25 E919.08496
G1 X144.65 Y21.25 E920.52866
G1 X145.09 Y26.276 E921.70842
G1 X144.094 Y26.363 E921.94221
G1 X143.705 Y21.913 E922.98675
G1 X143.717 Y21.525 E923.07752
G1 X143.81 Y21.188 E923.15927
G1 X143.981 Y20.877 E923.24226
G1 X144.222 Y20.615 E923.3255
G1 X144.513 Y20.419 E923.40755
G1 X144.848 Y20.295 E923.49107
G1 X145.222 Y20.25 E923.57916
G1 X150.775 Y20.25 E924.87765
G1 X151.749 Y20.335 E925.10628
G1 X152.679 Y20.584 E925.3314
G1 X153.541 Y20.987 E925.55391
G1 X154.329 Y21.538 E925.77875
G1 X155.008 Y22.217 E926.0033
G1 X155.559 Y23.005 E926.22814
G1 X155.962 Y23.867 E926.45064
G1 X156.211 Y24.797 E926.67577
G1 X156.296 Y25.771 E926.90439
G1 X156.296 Y260.729 E981.84614
G1 X156.211 Y261.703 E982.07476
G1 X155.962 Y262.633 E982.29989
G1 X155.559 Y263.495 E982.5224
G1 X155.008 Y264.283 E982.74724
G1 X154.329 Y264.962 E982.97178
G1 X153.541 Y265.513 E983.19662
G1 X152.679 Y265.916 E983.41913
G1 X151.749 Y266.165 E983.64426
G1 X150.296 Y266.292 E983.98532
G1 X150.296 Y278.75 E986.89845
G1 X155.296 Y278.75 E988.06764
G1 X155.296 Y269.75 E990.17216
G1 X156.296 Y269.75 E990.406
G1 X156.296 Y278.215 E992.38543
G1 X156.241 Y278.637 E992.48494
G1 X156.092 Y278.996 E992.57583
G1 X155.853 Y279.307 E992.66755
G1 X155.542 Y279.546 E992.75927
G1 X155.183 Y279.695 E992.85016
G1 X154.761 Y279.75 E992.94967
G1 X150.832 Y279.75 E993.86841
G1 X150.408 Y279.694 E993.96842
G1 X150.051 Y279.546 E994.05879
G1 X149.739 Y279.307 E994.15069
G1 X149.5 Y278.996 E994.24241
G1 X149.351 Y278.637 E994.3333
G1 X149.296 Y278.215 E994.43281
G1 X149.296 Y266.25 E997.23067
G1 X145.221 Y266.25 E998.18355
G1 X144.848 Y266.205 E998.2714
G1 X144.513 Y266.081 E998.35493
G1 X144.222 Y265.885 E998.43697
G1 X143.981 Y265.623 E998.52022
G1 X143.81 Y265.312 E998.60321
G1 X143.717 Y264.975 E998.68496
G1 X143.705 Y264.587 E998.77573
G1 X144.094 Y260.137 E999.82027
;TIME_ELAPSED:285.498535
;LAYER:5
G1 F2400 E998.32027
;MESH:hook.stl
G0 F9000 X144.094 Y260.137 Z3
;TYPE:WALL-OUTER
G1 F2400 E1001.69096
G1 F900 X145.09 Y260.224 E1001.92475
G1 X144.65 Y265.25 E1003.10451
G1 X150.824 Y265.25 E1004.54821
G1 X151.798 Y265.141 E1004.77739
G1 X152.75 Y264.807 E1005.01331
G1 X153.604 Y264.27 E1005.2492
G1 X154.317 Y263.558 E1005.48482
G1 X154.853 Y262.704 E1005.72059
G1 X155.187 Y261.752 E1005.95651
G1 X155.296 Y260.778 E1006.18569
G1 X155.296 Y25.722 E1061.15035
G1 X155.187 Y24.748 E1061.37953
G1 X154.853 Y23.796 E1061.61544
G1 X154.317 Y22.942 E1061.85121
G1 X153.604 Y22.23 E1062.08683
G1 X152.75 Y21.693 E1062.32273
G1 X151.798 Y21.359 E1062.55864
G1 X150.824 Y21.25 E1062.78782
G1 X144.65 Y21.25 E1064.23153
G1 X145.09 Y26.276 E1065.41129
G1 X144.094 Y26.363 E1065.64507
G1 X143.705 Y21.913 E1066.68961
G1 X143.717 Y21.525 E1066.78039
G1 X143.81 Y21.188 E1066.86213
G1 X143.981 Y20.877 E1066.94513
G1 X144.222 Y20.615 E1067.02837
G1 X144.513 Y20.419 E1067.11041
G1 X144.848 Y20.295 E1067.19394
G1 X145.222 Y20.25 E1067.28203
G1 X150.775 Y20.25 E1068.58052
G1 X151.749 Y20.335 E1068.80914
G1 X152.679 Y20.584 E1069.03427
G1 X153.541 Y20.987 E1069.25678
G1 X154.329 Y21.538 E1069.48162
G1 X155.008 Y22.217 E1069.70616
G1 X155.559 Y23.005 E1069.931
G1 X155.962 Y23.867 E1070.15351
G1 X156.211 Y24.797 E1070.37864
G1 X156.296 Y25.771 E1070.60726
G1 X156.296 Y260.729 E1125.54901
G1 X156.211 Y261.703 E1125.77763
G1 X155.962 Y262.633 E1126.00276
G1 X155.559 Y263.495 E1126.22526
G1 X155.008 Y264.283 E1126.45011
G1 X154.329 Y264.962 E1126.67465
G1 X153.541 Y265.513 E1126.89949
G1 X152.679 Y265.916 E1127.122
G1 X151.749 Y266.165 E1127.34712
G1 X150.296 Y266.292 E1127.68818
G1 X150.296 Y278.75 E1130.60132
G1 X155.296 Y278.75 E1131.7705
G1 X155.296 Y269.75 E1133.87503
G1 X156.296 Y269.75 E1134.10887
G1 X156.296 Y278.215 E1136.08829
G1 X156.241 Y278.637 E1136.18781
G1 X156.092 Y278.996 E1136.2787
G1 X155.853 Y279.307 E1136.37041
G1 X155.542 Y279.546 E1136.46213
G1 X155.183 Y279.695 E1136.55302
G1 X154.761 Y279.75 E1136.65253
G1 X150.832 Y279.75 E1137.57128
G1 X150.408 Y279.694 E1137.67129
G1 X150.051 Y279.546 E1137.76165
G1 X149.739 Y279.307 E1137.85356
G1 X149.5 Y278.996 E1137.94527
G1 X149.351 Y278.637 E1138.03616
G1 X149.296 Y278.215 E1138.13568
G1 X149.296 Y266.25 E1140.93353
G1 X145.221 Y266.25 E1141.88641
G1 X144.848 Y266.205 E1141.97427
G1 X144.513 Y266.081 E1142.0578
G1 X144.222 Y265.885 E1142.13984
G1 X143.981 Y265.623 E1142.22308
G1 X143.81 Y265.312 E1142.30607
G1 X143.717 Y264.975 E1142.38782
G1 X143.705 Y264.587 E1142.47859
G1 X144.094 Y260.137 E1143.52313
;TIME_ELAPSED:326.438104
;LAYER:6
G1 F2400 E1142.02313
;MESH:hook.stl
G0 F9000 X144.094 Y260.137 Z3.5
;TYPE:WALL-OUTER
G1 F2400 E1145.39383
G1 F900 X145.09 Y260.224 E1145.62761
G1 X144.65 Y265.25 E1146.80737
G1 X150.824 Y265.25 E1148.25108
G1 X151.798 Y265.141 E1148.48026
G1 X152.75 Y264.807 E1148.71617
G1 X153.604 Y264.27 E1148.95207
G1 X154.317 Y263.558 E1149.18769
G1 X154.853 Y262.704 E1149.42346
G1 X155.187 Y261.752 E1149.65937
G1 X155.296 Y260.778 E1149.88855
G1 X155.296 Y25.722 E1204.85321
G1 X155.187 Y24.748 E1205.08239
G1 X154.853 Y23.796 E1205.31831
G1 X154.317 Y22.942 E1205.55408
G1 X153.604 Y22.23 E1205.7897
G1 X152.75 Y21.693 E1206.02559
G1 X151.798 Y21.359 E1206.26151
G1 X150.824 Y21.25 E1206.49069
G1 X144.65 Y21.25 E1207.93439
G1 X145.09 Y26.276 E1209.11415
G1 X144.094 Y26.363 E1209.34794
G1 X143.705 Y21.913 E1210.39248
G1 X143.717 Y21.525 E1210.48325
G1 X143.81 Y21.188 E1210.565
G1 X143.981 Y20.877 E1210.64799
G1 X144.222 Y20.615 E1210.73123
G1 X144.513 Y20.419 E1210.81328
G1 X144.848 Y20.295 E1210.8968
G1 X145.222 Y20.25 E1210.98489
G1 X150.775 Y20.25 E1212.28338
G1 X151.749 Y20.335 E1212.51201
G1 X152.679 Y20.584 E1212.73713
G1 X153.541 Y20.987 E1212.95964
G1 X154.329 Y21.538 E1213.18448
G1 X155.008 Y22.217 E1213.40902
G1 X155.559 Y23.005 E1213.63387
G1 X155.962 Y23.867 E1213.85637
G1 X156.211 Y24.797 E1214.0815
G1 X156.296 Y25.771 E1214.31012
G1 X156.296 Y260.729 E1269.25187
G1 X156.211 Y261.703 E1269.48049
G1 X155.962 Y262.633 E1269.70562
G1 X155.559 Y263.495 E1269.92813
G1 X155.008 Y264.283 E1270.15297
G1 X154.329 Y264.962 E1270.37751
G1 X153.541 Y265.513 E1270.60235
G1 X152.679 Y265.916 E1270.82486
G1 X151.749 Y266.165 E1271.04999
G1 X150.296 Y266.292 E1271.39105
G1 X150.296 Y278.75 E1274.30418
G1 X155.296 Y278.75 E1275.47337
G1 X155.296 Y269.75 E1277.57789
G1 X156.296 Y269.75 E1277.81173
G1 X156.296 Y278.215 E1279.79116
G1 X156.241 Y278.637 E1279.89067
G1 X156.092 Y278.996 E1279.98156
G1 X155.853 Y279.307 E1280.07328
G1 X155.542 Y279.546 E1280.16499
G1 X155.183 Y279.695 E1280.25589
G1 X154.761 Y279.75 E1280.3554
G1 X150.832 Y279.75 E1281.27414
G1 X150.408 Y279.694 E1281.37415
G1 X150.051 Y279.546 E1281.46452
G1 X149.739 Y279.307 E1281.55642
G1 X149.5 Y278.996 E1281.64814
G1 X149.351 Y278.637 E1281.73903
G1 X149.296 Y278.215 E1281.83854
G1 X149.296 Y266.25 E1284.6364
G1 X145.221 Y266.25 E1285.58928
G1 X144.848 Y266.205 E1285.67713
G1 X144.513 Y266.081 E1285.76066
G1 X144.222 Y265.885 E1285.8427
G1 X143.981 Y265.623 E1285.92595
G1 X143.81 Y265.312 E1286.00894
G1 X143.717 Y264.975 E1286.09069
G1 X143.705 Y264.587 E1286.18146
G1 X144.094 Y260.137 E1287.226
;TIME_ELAPSED:367.377673
;LAYER:7
G1 F2400 E1285.726
;MESH:hook.stl
G0 F9000 X144.094 Y260.137 Z4
;TYPE:WALL-OUTER
G1 F2400 E1289.09669
G1 F900 X145.09 Y260.224 E1289.33048
G1 X144.65 Y265.25 E1290.51024
G1 X150.824 Y265.25 E1291.95394
G1 X151.798 Y265.141 E1292.18312
G1 X152.75 Y264.807 E1292.41904
G1 X153.604 Y264.27 E1292.65493
G1 X154.317 Y263.558 E1292.89055
G1 X154.853 Y262.704 E1293.12632
G1 X155.187 Y261.752 E1293.36224
G1 X155.296 Y260.778 E1293.59142
G1 X155.296 Y25.722 E1348.55608
G1 X155.187 Y24.748 E1348.78526
G1 X154.853 Y23.796 E1349.02117
G1 X154.317 Y22.942 E1349.25694
G1 X153.604 Y22.23 E1349.49256
G1 X152.75 Y21.693 E1349.72846
G1 X151.798 Y21.359 E1349.96437
G1 X150.824 Y21.25 E1350.19355
G1 X144.65 Y21.25 E1351.63726
G1 X145.09 Y26.276 E1352.81702
G1 X144.094 Y26.363 E1353.0508
G1 X143.705 Y21.913 E1354.09534
G1 X143.717 Y21.525 E1354.18612
G1 X143.81 Y21.188 E1354.26786
G1 X143.981 Y20.877 E1354.35086
G1 X144.222 Y20.615 E1354.4341
G1 X144.513 Y20.419 E1354.51614
G1 X144.848 Y20.295 E1354.59967
G1 X145.222 Y20.25 E1354.68775
G1 X150.775 Y20.25 E1355.98625
G1 X151.749 Y20.335 E1356.21487
G1 X152.679 Y20.584 E1356.44
G1 X153.541 Y20.987 E1356.66251
G1 X154.329 Y21.538 E1356.88735
G1 X155.008 Y22.217 E1357.11189
G1 X155.559 Y23.005 E1357.33673
G1 X155.962 Y23.867 E1357.55924
G1 X156.211 Y24.797 E1357.78437
G1 X156.296 Y25.771 E1358.01299
G1 X156.296 Y260.729 E1412.95474
G1 X156.211 Y261.703 E1413.18336
G1 X155.962 Y262.633 E1413.40849
G1 X155.559 Y263.495 E1413.63099
G1 X155.008 Y264.283 E1413.85584
G1 X154.329 Y264.962 E1414.08038
G1 X153.541 Y265.513 E1414.30522
G1 X152.679 Y265.916 E1414.52773
G1 X151.749 Y266.165 E1414.75285
G1 X150.296 Y266.292 E1415.09391
G1 X150.296 Y278.75 E1418.00705
G1 X155.296 Y278.75 E1419.17623
G1 X155.296 Y270.001 E1421.22207
G1 X156.296 Y270.001 E1421.4559
G1 X156.296 Y278.215 E1423.37664
G1 X156.241 Y278.637 E1423.47615
G1 X156.092 Y278.996 E1423.56704
G1 X155.853 Y279.307 E1423.65876
G1 X155.542 Y279.546 E1423.75047
G1 X155.183 Y279.695 E1423.84136
G1 X154.761 Y279.75 E1423.94088
G1 X150.832 Y279.75 E1424.85962
G1 X150.408 Y279.694 E1424.95963
G1 X150.051 Y279.546 E1425.05
G1 X149.739 Y279.307 E1425.1419
G1 X149.5 Y278.996 E1425.23362
G1 X149.351 Y278.637 E1425.32451
G1 X149.296 Y278.215 E1425.42402
G1 X149.296 Y266.25 E1428.22187
G1 X145.221 Y266.25 E1429.17476
G1 X144.848 Y266.205 E1429.26261
G1 X144.513 Y266.081 E1429.34614
G1 X144.222 Y265.885 E1429.42818
G1 X143.981 Y265.623 E1429.51143
G1 X143.81 Y265.312 E1429.59442
G1 X143.717 Y264.975 E1429.67616
G1 X143.705 Y264.587 E1429.76694
G1 X144.094 Y260.137 E1430.81148
;TIME_ELAPSED:408.283775
;LAYER:8
G1 F2400 E1429.31148
;MESH:hook.stl
G0 F9000 X144.094 Y260.137 Z4.5
;TYPE:WALL-OUTER
G1 F2400 E1432.68217
G1 F900 X145.09 Y260.224 E1432.91596
G1 X144.65 Y265.25 E1434.09571
G1 X150.824 Y265.25 E1435.53942
G1 X151.798 Y265.141 E1435.7686
G1 X152.75 Y264.807 E1436.00451
G1 X153.604 Y264.27 E1436.24041
G1 X154.317 Y263.558 E1436.47603
G1 X154.853 Y262.704 E1436.7118
G1 X155.187 Y261.752 E1436.94772
G1 X155.296 Y260.778 E1437.17689
G1 X155.296 Y25.722 E1492.14156
G1 X155.187 Y24.748 E1492.37074
G1 X154.853 Y23.796 E1492.60665
G1 X154.317 Y22.942 E1492.84242
G1 X153.604 Y22.23 E1493.07804
G1 X152.75 Y21.693 E1493.31394
G1 X151.798 Y21.359 E1493.54985
G1 X150.824 Y21.25 E1493.77903
G1 X144.65 Y21.25 E1495.22274
G1 X145.09 Y26.276 E1496.40249
G1 X144.094 Y26.363 E1496.63628
G1 X143.705 Y21.913 E1497.68082
G1 X143.717 Y21.525 E1497.7716
G1 X143.81 Y21.188 E1497.85334
G1 X143.981 Y20.877 E1497.93633
G1 X144.222 Y20.615 E1498.01958
G1 X144.513 Y20.419 E1498.10162
G1 X144.848 Y20.295 E1498.18515
G1 X145.222 Y20.25 E1498.27323
G1 X150.775 Y20.25 E1499.57173
G1 X151.749 Y20.335 E1499.80035
G1 X152.679 Y20.584 E1500.02548
G1 X153.541 Y20.987 E1500.24799
G1 X154.329 Y21.538 E1500.47283
G1 X155.008 Y22.217 E1500.69737
G1 X155.559 Y23.005 E1500.92221
G1 X155.962 Y23.867 E1501.14472
G1 X156.211 Y24.797 E1501.36985
G1 X156.296 Y25.771 E1501.59847
G1 X156.296 Y260.729 E1556.54022
G1 X156.211 Y261.703 E1556.76884
G1 X155.962 Y262.633 E1556.99397
G1 X155.559 Y263.495 E1557.21647
G1 X155.008 Y264.283 E1557.44131
G1 X154.329 Y264.962 E1557.66586
G1 X153.541 Y265.513 E1557.8907
G1 X152.679 Y265.916 E1558.11321
G1 X151.749 Y266.165 E1558.33833
G1 X150.296 Y266.292 E1558.67939
G1 X150.296 Y278.75 E1561.59253
G1 X155.296 Y278.75 E1562.76171
G1 X155.296 Y270.501 E1564.69063
G1 X156.296 Y270.501 E1564.92446
G1 X156.296 Y278.215 E1566.72828
G1 X156.241 Y278.637 E1566.82779
G1 X156.092 Y278.996 E1566.91868
G1 X155.853 Y279.307 E1567.0104
G1 X155.542 Y279.546 E1567.10212
G1 X155.183 Y279.695 E1567.19301
G1 X154.761 Y279.75 E1567.29252
G1 X150.832 Y279.75 E1568.21126
G1 X150.408 Y279.694 E1568.31127
G1 X150.051 Y279.546 E1568.40164
G1 X149.739 Y279.307 E1568.49354
G1 X149.5 Y278.996 E1568.58526
G1 X149.351 Y278.637 E1568.67615
G1 X149.296 Y278.215 E1568.77566
G1 X149.296 Y266.25 E1571.57352
G1 X145.221 Y266.25 E1572.5264
G1 X144.848 Y266.205 E1572.61425
G1 X144.513 Y266.081 E1572.69778
G1 X144.222 Y265.885 E1572.77983
G1 X143.981 Y265.623 E1572.86307
G1 X143.81 Y265.312 E1572.94606
G1 X143.717 Y264.975 E1573.02781
G1 X143.705 Y264.587 E1573.11858
G1 X144.094 Y260.137 E1574.16312
;TIME_ELAPSED:449.123211
;LAYER:9
G1 F2400 E1572.66312
;MESH:hook.stl
G0 F9000 X144.094 Y260.137 Z5
;TYPE:WALL-OUTER
G1 F2400 E1576.03381
G1 F900 X145.09 Y260.224 E1576.2676
G1 X144.65 Y265.25 E1577.44736
G1 X150.824 Y265.25 E1578.89106
G1 X151.798 Y265.141 E1579.12024
G1 X152.75 Y264.807 E1579.35616
G1 X153.604 Y264.27 E1579.59205
G1 X154.317 Y263.558 E1579.82767
G1 X154.853 Y262.704 E1580.06344
G1 X155.187 Y261.752 E1580.29936
G1 X155.296 Y260.778 E1580.52854
G1 X155.296 Y25.722 E1635.4932
G1 X155.187 Y24.748 E1635.72238
G1 X154.853 Y23.796 E1635.95829
G1 X154.317 Y22.942 E1636.19406
G1 X153.604 Y22.23 E1636.42968
G1 X152.75 Y21.693 E1636.66558
G1 X151.798 Y21.359 E1636.9015
G1 X150.824 Y21.25 E1637.13067
G1 X144.65 Y21.25 E1638.57438
G1 X145.09 Y26.276 E1639.75414
G1 X144.094 Y26.363 E1639.98793
G1 X143.705 Y21.913 E1641.03247
G1 X143.717 Y21.525 E1641.12324
G1 X143.81 Y21.188 E1641.20499
G1 X143.981 Y20.877 E1641.28798
G1 X144.222 Y20.615 E1641.37122
G1 X144.513 Y20.419 E1641.45326
G1 X144.848 Y20.295 E1641.53679
G1 X145.222 Y20.25 E1641.62488
G1 X150.775 Y20.25 E1642.92337
G1 X151.749 Y20.335 E1643.15199
G1 X152.679 Y20.584 E1643.37712
G1 X153.541 Y20.987 E1643.59963
G1 X154.329 Y21.538 E1643.82447
G1 X155.008 Y22.217 E1644.04901
G1 X155.559 Y23.005 E1644.27385
G1 X155.962 Y23.867 E1644.49636
G1 X156.211 Y24.797 E1644.72149
G1 X156.296 Y25.771 E1644.95011
G1 X156.296 Y260.729 E1699.89186
G1 X156.211 Y261.703 E1700.12048
G1 X155.962 Y262.633 E1700.34561
G1 X155.559 Y263.495 E1700.56812
G1 X155.008 Y264.283 E1700.79296
G1 X154.329 Y264.962 E1701.0175
G1 X153.541 Y265.513 E1701.24234
G1 X152.679 Y265.916 E1701.46485
G1 X151.749 Y266.165 E1701.68998
G1 X150.296 Y266.292 E1702.03104
G1 X150.296 Y278.75 E1704.94417
G1 X155.296 Y278.75 E1706.11335
G1 X155.296 Y271.001 E1707.92535
G1 X156.296 Y271.001 E1708.15919
G1 X156.296 Y278.215 E1709.84608
G1 X156.241 Y278.637 E1709.9456
G1 X156.092 Y278.996 E1710.03649
G1 X155.853 Y279.307 E1710.12821
G1 X155.542 Y279.546 E1710.21992
G1 X155.183 Y279.695 E1710.31081
G1 X154.761 Y279.75 E1710.41033
G1 X150.832 Y279.75 E1711.32907
G1 X150.408 Y279.694 E1711.42908
G1 X150.051 Y279.546 E1711.51945
G1 X149.739 Y279.307 E1711.61135
G1 X149.5 Y278.996 E1711.70307
G1 X149.351 Y278.637 E1711.79396
G1 X149.296 Y278.215 E1711.89347
G1 X149.296 Y266.25 E1714.69132
G1 X145.221 Y266.25 E1715.64421
G1 X144.848 Y266.205 E1715.73206
G1 X144.513 Y266.081 E1715.81559
G1 X144.222 Y265.885 E1715.89763
G1 X143.981 Y265.623 E1715.98087
G1 X143.81 Y265.312 E1716.06386
G1 X143.717 Y264.975 E1716.14561
G1 X143.705 Y264.587 E1716.23639
G1 X144.094 Y260.137 E1717.28093
;TIME_ELAPSED:489.895980
;LAYER:10
G1 F2400 E1715.78093
;MESH:hook.stl
G0 F9000 X144.094 Y260.137 Z5.5
;TYPE:WALL-OUTER
G1 F2400 E1719.15162
G1 F900 X145.09 Y260.224 E1719.38541
G1 X144.65 Y265.25 E1720.56516
G1 X150.824 Y265.25 E1722.00887
G1 X151.798 Y265.141 E1722.23805
G1 X152.75 Y264.807 E1722.47396
G1 X153.604 Y264.27 E1722.70986
G1 X154.317 Y263.558 E1722.94548
G1 X154.853 Y262.704 E1723.18125
G1 X155.187 Y261.752 E1723.41716
G1 X155.296 Y260.778 E1723.64634
G1 X155.296 Y25.722 E1778.61101
G1 X155.187 Y24.748 E1778.84018
G1 X154.853 Y23.796 E1779.0761
G1 X154.317 Y22.942 E1779.31187
G1 X153.604 Y22.23 E1779.54749
G1 X152.75 Y21.693 E1779.78339
G1 X151.798 Y21.359 E1780.0193
G1 X150.824 Y21.25 E1780.24848
G1 X144.65 Y21.25 E1781.69219
G1 X145.09 Y26.276 E1782.87194
G1 X144.094 Y26.363 E1783.10573
G1 X143.705 Y21.913 E1784.15027
G1 X143.717 Y21.525 E1784.24104
G1 X143.81 Y21.188 E1784.32279
G1 X143.981 Y20.877 E1784.40578
G1 X144.222 Y20.615 E1784.48903
G1 X144.513 Y20.419 E1784.57107
G1 X144.848 Y20.295 E1784.6546
G1 X145.222 Y20.25 E1784.74268
G1 X150.775 Y20.25 E1786.04118
G1 X151.749 Y20.335 E1786.2698
G1 X152.679 Y20.584 E1786.49493
G1 X153.541 Y20.987 E1786.71743
G1 X154.329 Y21.538 E1786.94228
G1 X155.008 Y22.217 E1787.16682
G1 X155.559 Y23.005 E1787.39166
G1 X155.962 Y23.867 E1787.61417
G1 X156.211 Y24.797 E1787.83929
G1 X156.296 Y25.771 E1788.06792
G1 X156.296 Y260.729 E1843.00966
G1 X156.211 Y261.703 E1843.23829
G1 X155.962 Y262.633 E1843.46341
G1 X155.559 Y263.495 E1843.68592
G1 X155.008 Y264.283 E1843.91076
G1 X154.329 Y264.962 E1844.13531
G1 X153.541 Y265.513 E1844.36015
G1 X152.679 Y265.916 E1844.58265
G1 X151.749 Y266.165 E1844.80778
G1 X150.296 Y266.292 E1845.14884
G1 X150.296 Y278.75 E1848.06198
G1 X155.296 Y278.75 E1849.23116
G1 X155.296 Y271.501 E1850.92624
G1 X156.296 Y271.501 E1851.16008
G1 X156.296 Y278.215 E1852.73005
G1 X156.241 Y278.637 E1852.82957
G1 X156.092 Y278.996 E1852.92046
G1 X155.853 Y279.307 E1853.01217
G1 X155.542 Y279.546 E1853.10389
G1 X155.183 Y279.695 E1853.19478
G1 X154.761 Y279.75 E1853.2943
G1 X150.832 Y279.75 E1854.21304
G1 X150.408 Y279.694 E1854.31305
G1 X150.051 Y279.546 E1854.40342
G1 X149.739 Y279.307 E1854.49532
G1 X149.5 Y278.996 E1854.58704
G1 X149.351 Y278.637 E1854.67793
G1 X149.296 Y278.215 E1854.77744
G1 X149.296 Y266.25 E1857.57529
G1 X145.221 Y266.25 E1858.52818
G1 X144.848 Y266.205 E1858.61603
G1 X144.513 Y266.081 E1858.69956
G1 X144.222 Y265.885 E1858.7816
G1 X143.981 Y265.623 E1858.86484
G1 X143.81 Y265.312 E1858.94783
G1 X143.717 Y264.975 E1859.02958
G1 X143.705 Y264.587 E1859.12035
G1 X144.094 Y260.137 E1860.1649
;TIME_ELAPSED:530.602082
;LAYER:11
G1 F2400 E1858.6649
;MESH:hook.stl
G0 F9000 X144.094 Y260.137 Z6
;TYPE:WALL-OUTER
G1 F2400 E1862.03559
G1 F900 X145.09 Y260.224 E1862.26938
G1 X144.65 Y265.25 E1863.44913
G1 X150.824 Y265.25 E1864.89284
G1 X151.798 Y265.141 E1865.12202
G1 X152.75 Y264.807 E1865.35793
G1 X153.604 Y264.27 E1865.59383
G1 X154.317 Y263.558 E1865.82945
G1 X154.853 Y262.704 E1866.06522
G1 X155.187 Y261.752 E1866.30113
G1 X155.296 Y260.778 E1866.53031
G1 X155.296 Y25.722 E1921.49498
G1 X155.187 Y24.748 E1921.72415
G1 X154.853 Y23.796 E1921.96007
G1 X154.317 Y22.942 E1922.19584
G1 X153.604 Y22.23 E1922.43146
G1 X152.75 Y21.693 E1922.66736
G1 X151.798 Y21.359 E1922.90327
G1 X150.824 Y21.25 E1923.13245
G1 X144.65 Y21.25 E1924.57616
G1 X145.09 Y26.276 E1925.75591
G1 X144.094 Y26.363 E1925.9897
G1 X143.705 Y21.913 E1927.03424
G1 X143.717 Y21.525 E1927.12501
G1 X143.81 Y21.188 E1927.20676
G1 X143.981 Y20.877 E1927.28975
G1 X144.222 Y20.615 E1927.373
G1 X144.513 Y20.419 E1927.45504
G1 X144.848 Y20.295 E1927.53857
G1 X145.222 Y20.25 E1927.62665
G1 X150.775 Y20.25 E1928.92515
G1 X151.749 Y20.335 E1929.15377
G1 X152.679 Y20.584 E1929.3789
G1 X153.541 Y20.987 E1929.6014
G1 X154.329 Y21.538 E1929.82625
G1 X155.008 Y22.217 E1930.05079
G1 X155.559 Y23.005 E1930.27563
G1 X155.962 Y23.867 E1930.49814
G1 X156.211 Y24.797 E1930.72326
G1 X156.296 Y25.771 E1930.95189
G1 X156.296 Y260.729 E1985.89363
G1 X156.211 Y261.703 E1986.12226
G1 X155.962 Y262.633 E1986.34738
G1 X155.559 Y263.495 E1986.56989
G1 X155.008 Y264.283 E1986.79473
G1 X154.329 Y264.962 E1987.01927
G1 X153.541 Y265.513 E1987.24412
G1 X152.679 Y265.916 E1987.46662
G1 X151.749 Y266.165 E1987.69175
G1 X150.296 Y266.292 E1988.03281
G1 X150.296 Y278.75 E1990.94595
G1 X155.296 Y278.75 E1992.11513
G1 X155.296 Y275.779 E1992.80986
G1 X156.296 Y275.778 E1993.04369
G1 X156.296 Y278.215 E1993.61355
G1 X156.241 Y278.637 E1993.71307
G1 X156.092 Y278.996 E1993.80396
G1 X155.853 Y279.307 E1993.89567
G1 X155.542 Y279.546 E1993.98739
G1 X155.183 Y279.695 E1994.07828
G1 X154.761 Y279.75 E1994.17779
G1 X150.832 Y279.75 E1995.09654
G1 X150.408 Y279.694 E1995.19655
G1 X150.051 Y279.546 E1995.28691
G1 X149.739 Y279.307 E1995.37882
G1 X149.5 Y278.996 E1995.47053
G1 X149.351 Y278.637 E1995.56142
G1 X149.296 Y278.215 E1995.66094
G1 X149.296 Y266.25 E1998.45879
G1 X145.221 Y266.25 E1999.41168
G1 X144.848 Y266.205 E1999.49953
G1 X144.513 Y266.081 E1999.58306
G1 X144.222 Y265.885 E1999.6651
G1 X143.981 Y265.623 E1999.74834
G1 X143.81 Y265.312 E1999.83133
G1 X143.717 Y264.975 E1999.91308
G1 X143.705 Y264.587 E2000.00385
G1 X144.094 Y260.137 E2001.04839
;TIME_ELAPSED:570.737851
;LAYER:12
G1 F2400 E1999.54839
;MESH:hook.stl
G0 F9000 X144.094 Y260.137 Z6.5
;TYPE:WALL-OUTER
G1 F2400 E2002.91909
G1 F900 X145.09 Y260.224 E2003.15287
G1 X144.65 Y265.25 E2004.33263
G1 X150.824 Y265.25 E2005.77634
G1 X151.798 Y265.141 E2006.00552
G1 X152.75 Y264.807 E2006.24143
G1 X153.604 Y264.27 E2006.47733
G1 X154.317 Y263.558 E2006.71295
G1 X154.853 Y262.704 E2006.94872
G1 X155.187 Y261.752 E2007.18463
G1 X155.296 Y260.778 E2007.41381
G1 X155.296 Y25.722 E2062.37847
G1 X155.187 Y24.748 E2062.60765
G1 X154.853 Y23.796 E2062.84357
G1 X154.317 Y22.942 E2063.07934
G1 X153.604 Y22.23 E2063.31496
G1 X152.75 Y21.693 E2063.55085
G1 X151.798 Y21.359 E2063.78677
G1 X150.824 Y21.25 E2064.01595
G1 X144.65 Y21.25 E2065.45965
G1 X145.09 Y26.276 E2066.63941
G1 X144.094 Y26.363 E2066.8732
G1 X143.705 Y21.913 E2067.91774
G1 X143.717 Y21.525 E2068.00851
G1 X143.81 Y21.188 E2068.09026
G1 X143.981 Y20.877 E2068.17325
G1 X144.222 Y20.615 E2068.25649
G1 X144.513 Y20.419 E2068.33854
G1 X144.848 Y20.295 E2068.42207
G1 X145.222 Y20.25 E2068.51015
G1 X150.775 Y20.25 E2069.80864
G1 X151.749 Y20.335 E2070.03727
G1 X152.679 Y20.584 E2070.26239
G1 X153.541 Y20.987 E2070.4849
G1 X154.329 Y21.538 E2070.70974
G1 X155.008 Y22.217 E2070.93429
G1 X155.559 Y23.005 E2071.15913
G1 X155.962 Y23.867 E2071.38163
G1 X156.211 Y24.797 E2071.60676
G1 X156.296 Y25.771 E2071.83538
G1 X156.296 Y260.729 E2126.77713
G1 X156.211 Y261.703 E2127.00575
G1 X155.962 Y262.633 E2127.23088
G1 X155.559 Y263.495 E2127.45339
G1 X155.008 Y264.283 E2127.67823
G1 X154.329 Y264.962 E2127.90277
G1 X153.541 Y265.513 E2128.12761
G1 X152.679 Y265.916 E2128.35012
G1 X151.749 Y266.165 E2128.57525
G1 X150.296 Y266.292 E2128.91631
G1 X150.296 Y278.75 E2131.82944
G1 X155.296 Y278.75 E2132.99863
G1 X155.296 Y275.778 E2133.69359
G1 X156.296 Y275.778 E2133.92743
G1 X156.296 Y278.215 E2134.49728
G1 X156.241 Y278.637 E2134.5968
G1 X156.092 Y278.996 E2134.68769
G1 X155.853 Y279.307 E2134.77941
G1 X155.542 Y279.546 E2134.87112
G1 X155.183 Y279.695 E2134.96201
G1 X154.761 Y279.75 E2135.06153
G1 X150.832 Y279.75 E2135.98027
G1 X150.408 Y279.694 E2136.08028
G1 X150.051 Y279.546 E2136.17065
G1 X149.739 Y279.307 E2136.26255
G1 X149.5 Y278.996 E2136.35427
G1 X149.351 Y278.637 E2136.44516
G1 X149.296 Y278.215 E2136.54467
G1 X149.296 Y266.25 E2139.34252
G1 X145.221 Y266.25 E2140.29541
G1 X144.848 Y266.205 E2140.38326
G1 X144.513 Y266.081 E2140.46679
G1 X144.222 Y265.885 E2140.54883
G1 X143.981 Y265.623 E2140.63207
G1 X143.81 Y265.312 E2140.71507
G1 X143.717 Y264.975 E2140.79681
G1 X143.705 Y264.587 E2140.88759
G1 X144.094 Y260.137 E2141.93213
;TIME_ELAPSED:610.873686
;LAYER:13
G1 F2400 E2140.43213
;MESH:hook.stl
G0 F9000 X144.094 Y260.137 Z7
;TYPE:WALL-OUTER
G1 F2400 E2143.80282
G1 F900 X145.09 Y260.224 E2144.03661
G1 X144.65 Y265.25 E2145.21636
G1 X150.824 Y265.25 E2146.66007
G1 X151.798 Y265.141 E2146.88925
G1 X152.75 Y264.807 E2147.12516
G1 X153.604 Y264.27 E2147.36106
G1 X154.317 Y263.558 E2147.59668
G1 X154.853 Y262.704 E2147.83245
G1 X155.187 Y261.752 E2148.06836
G1 X155.296 Y260.778 E2148.29754
G1 X155.296 Y25.722 E2203.26221
G1 X155.187 Y24.748 E2203.49139
G1 X154.853 Y23.796 E2203.7273
G1 X154.317 Y22.942 E2203.96307
G1 X153.604 Y22.23 E2204.19869
G1 X152.75 Y21.693 E2204.43459
G1 X151.798 Y21.359 E2204.6705
G1 X150.824 Y21.25 E2204.89968
G1 X144.65 Y21.25 E2206.34339
G1 X145.09 Y26.276 E2207.52314
G1 X144.094 Y26.363 E2207.75693
G1 X143.705 Y21.913 E2208.80147
G1 X143.717 Y21.525 E2208.89224
G1 X143.81 Y21.188 E2208.97399
G1 X143.981 Y20.877 E2209.05698
G1 X144.222 Y20.615 E2209.14023
G1 X144.513 Y20.419 E2209.22227
G1 X144.848 Y20.295 E2209.3058
G1 X145.222 Y20.25 E2209.39388
G1 X150.775 Y20.25 E2210.69238
G1 X151.749 Y20.335 E2210.921
G1 X152.679 Y20.584 E2211.14613
G1 X153.541 Y20.987 E2211.36863
G1 X154.329 Y21.538 E2211.59348
G1 X155.008 Y22.217 E2211.81802
G1 X155.559 Y23.005 E2212.04286
G1 X155.962 Y23.867 E2212.26537
G1 X156.211 Y24.797 E2212.49049
G1 X156.296 Y25.771 E2212.71912
G1 X156.296 Y260.729 E2267.66086
G1 X156.211 Y261.703 E2267.88949
G1 X155.962 Y262.633 E2268.11462
G1 X155.559 Y263.495 E2268.33712
G1 X155.008 Y264.283 E2268.56196
G1 X154.329 Y264.962 E2268.78651
G1 X153.541 Y265.513 E2269.01135
G1 X152.679 Y265.916 E2269.23386
G1 X151.749 Y266.165 E2269.45898
G1 X150.296 Y266.292 E2269.80004
G1 X150.296 Y278.75 E2272.71318
G1 X155.296 Y278.75 E2273.88236
G1 X155.296 Y275.778 E2274.57732
G1 X156.296 Y275.778 E2274.81116
G1 X156.296 Y278.215 E2275.38102
G1 X156.241 Y278.637 E2275.48053
G1 X156.092 Y278.996 E2275.57142
G1 X155.853 Y279.307 E2275.66314
G1 X155.542 Y279.546 E2275.75486
G1 X155.183 Y279.695 E2275.84575
G1 X154.761 Y279.75 E2275.94526
G1 X150.832 Y279.75 E2276.864
G1 X150.408 Y279.694 E2276.96401
G1 X150.051 Y279.546 E2277.05438
G1 X149.739 Y279.307 E2277.14628
G1 X149.5 Y278.996 E2277.238
G1 X149.351 Y278.637 E2277.32889
G1 X149.296 Y278.215 E2277.4284
G1 X149.296 Y266.25 E2280.22626
G1 X145.221 Y266.25 E2281.17914
G1 X144.848 Y266.205 E2281.26699
G1 X144.513 Y266.081 E2281.35052
G1 X144.222 Y265.885 E2281.43256
G1 X143.981 Y265.623 E2281.51581
G1 X143.81 Y265.312 E2281.5988
G1 X143.717 Y264.975 E2281.68055
G1 X143.705 Y264.587 E2281.77132
G1 X144.094 Y260.137 E2282.81586
;TIME_ELAPSED:651.009522
;LAYER:14
G1 F2400 E2281.31586
;MESH:hook.stl
G0 F9000 X144.094 Y260.137 Z7.5
;TYPE:WALL-OUTER
G1 F2400 E2284.68655
G1 F900 X145.09 Y260.224 E2284.92034
G1 X144.65 Y265.25 E2286.1001
G1 X150.824 Y265.25 E2287.5438
G1 X151.798 Y265.141 E2287.77298
G1 X152.75 Y264.807 E2288.0089
G1 X153.604 Y264.27 E2288.24479
G1 X154.317 Y263.558 E2288.48041
G1 X154.853 Y262.704 E2288.71618
G1 X155.187 Y261.752 E2288.9521
G1 X155.296 Y260.778 E2289.18128
G1 X155.296 Y25.722 E2344.14594
G1 X155.187 Y24.748 E2344.37512
G1 X154.853 Y23.796 E2344.61103
G1 X154.317 Y22.942 E2344.8468
G1 X153.604 Y22.23 E2345.08242
G1 X152.75 Y21.693 E2345.31832
G1 X151.798 Y21.359 E2345.55423
G1 X150.824 Y21.25 E2345.78341
G1 X144.65 Y21.25 E2347.22712
G1 X145.09 Y26.276 E2348.40688
G1 X144.094 Y26.363 E2348.64066
G1 X143.705 Y21.913 E2349.6852
G1 X143.717 Y21.525 E2349.77598
G1 X143.81 Y21.188 E2349.85773
G1 X143.981 Y20.877 E2349.94072
G1 X144.222 Y20.615 E2350.02396
G1 X144.513 Y20.419 E2350.106
G1 X144.848 Y20.295 E2350.18953
G1 X145.222 Y20.25 E2350.27762
G1 X150.775 Y20.25 E2351.57611
G1 X151.749 Y20.335 E2351.80473
G1 X152.679 Y20.584 E2352.02986
G1 X153.541 Y20.987 E2352.25237
G1 X154.329 Y21.538 E2352.47721
G1 X155.008 Y22.217 E2352.70175
G1 X155.559 Y23.005 E2352.92659
G1 X155.962 Y23.867 E2353.1491
G1 X156.211 Y24.797 E2353.37423
G1 X156.296 Y25.771 E2353.60285
G1 X156.296 Y260.729 E2408.5446
G1 X156.211 Y261.703 E2408.77322
G1 X155.962 Y262.633 E2408.99835
G1 X155.559 Y263.495 E2409.22086
G1 X155.008 Y264.283 E2409.4457
G1 X154.329 Y264.962 E2409.67024
G1 X153.541 Y265.513 E2409.89508
G1 X152.679 Y265.916 E2410.11759
G1 X151.749 Y266.165 E2410.34272
G1 X150.296 Y266.292 E2410.68377
G1 X150.296 Y278.75 E2413.59691
G1 X155.296 Y278.75 E2414.76609
G1 X155.296 Y275.778 E2415.46105
G1 X156.296 Y275.778 E2415.69489
G1 X156.296 Y278.215 E2416.26475
G1 X156.241 Y278.637 E2416.36426
G1 X156.092 Y278.996 E2416.45515
G1 X155.853 Y279.307 E2416.54687
G1 X155.542 Y279.546 E2416.63859
G1 X155.183 Y279.695 E2416.72948
G1 X154.761 Y279.75 E2416.82899
G1 X150.832 Y279.75 E2417.74774
G1 X150.408 Y279.694 E2417.84774
G1 X150.051 Y279.546 E2417.93811
G1 X149.739 Y279.307 E2418.03001
G1 X149.5 Y278.996 E2418.12173
G1 X149.351 Y278.637 E2418.21262
G1 X149.296 Y278.215 E2418.31214
G1 X149.296 Y266.25 E2421.10999
G1 X145.221 Y266.25 E2422.06287
G1 X144.848 Y266.205 E2422.15073
G1 X144.513 Y266.081 E2422.23426
G1 X144.222 Y265.885 E2422.3163
G1 X143.981 Y265.623 E2422.39954
G1 X143.81 Y265.312 E2422.48253
G1 X143.717 Y264.975 E2422.56428
G1 X143.705 Y264.587 E2422.65505
G1 X144.094 Y260.137 E2423.69959
;TIME_ELAPSED:691.145357
;LAYER:15
G1 F2400 E2422.19959
;MESH:hook.stl
G0 F9000 X144.094 Y260.137 Z8
;TYPE:WALL-OUTER
G1 F2400 E2425.57028
G1 F900 X145.09 Y260.224 E2425.80407
G1 X144.65 Y265.25 E2426.98383
G1 X150.824 Y265.25 E2428.42753
G1 X151.798 Y265.141 E2428.65671
G1 X152.75 Y264.807 E2428.89263
G1 X153.604 Y264.27 E2429.12852
G1 X154.317 Y263.558 E2429.36414
G1 X154.853 Y262.704 E2429.59991
G1 X155.187 Y261.752 E2429.83583
G1 X155.296 Y260.778 E2430.06501
G1 X155.296 Y25.722 E2485.02967
G1 X155.187 Y24.748 E2485.25885
G1 X154.853 Y23.796 E2485.49477
G1 X154.317 Y22.942 E2485.73054
G1 X153.604 Y22.23 E2485.96616
G1 X152.75 Y21.693 E2486.20205
G1 X151.798 Y21.359 E2486.43797
G1 X150.824 Y21.25 E2486.66715
G1 X144.65 Y21.25 E2488.11085
G1 X145.09 Y26.276 E2489.29061
G1 X144.094 Y26.363 E2489.5244
G1 X143.705 Y21.913 E2490.56894
G1 X143.717 Y21.525 E2490.65971
G1 X143.81 Y21.188 E2490.74146
G1 X143.981 Y20.877 E2490.82445
G1 X144.222 Y20.615 E2490.90769
G1 X144.513 Y20.419 E2490.98973
G1 X144.848 Y20.295 E2491.07326
G1 X145.222 Y20.25 E2491.16135
G1 X150.775 Y20.25 E2492.45984
G1 X151.749 Y20.335 E2492.68846
G1 X152.679 Y20.584 E2492.91359
G1 X153.541 Y20.987 E2493.1361
G1 X154.329 Y21.538 E2493.36094
G1 X155.008 Y22.217 E2493.58548
G1 X155.559 Y23.005 E2493.81032
G1 X155.962 Y23.867 E2494.03283
G1 X156.211 Y24.797 E2494.25796
G1 X156.296 Y25.771 E2494.48658
G1 X156.296 Y260.729 E2549.42833
G1 X156.211 Y261.703 E2549.65695
G1 X155.962 Y262.633 E2549.88208
G1 X155.559 Y263.495 E2550.10459
G1 X155.008 Y264.283 E2550.32943
G1 X154.329 Y264.962 E2550.55397
G1 X153.541 Y265.513 E2550.77881
G1 X152.679 Y265.916 E2551.00132
G1 X151.749 Y266.165 E2551.22645
G1 X150.296 Y266.292 E2551.56751
G1 X150.296 Y278.75 E2554.48064
G1 X155.296 Y278.75 E2555.64982
G1 X155.296 Y275.778 E2556.34479
G1 X156.296 Y275.778 E2556.57862
G1 X156.296 Y278.215 E2557.14848
G1 X156.241 Y278.637 E2557.248
G1 X156.092 Y278.996 E2557.33889
G1 X155.853 Y279.307 E2557.4306
G1 X155.542 Y279.546 E2557.52232
G1 X155.183 Y279.695 E2557.61321
G1 X154.761 Y279.75 E2557.71272
G1 X150.832 Y279.75 E2558.63147
G1 X150.408 Y279.694 E2558.73148
G1 X150.051 Y279.546 E2558.82184
G1 X149.739 Y279.307 E2558.91375
G1 X149.5 Y278.996 E2559.00546
G1 X149.351 Y278.637 E2559.09635
G1 X149.296 Y278.215 E2559.19587
G1 X149.296 Y266.25 E2561.99372
G1 X145.221 Y266.25 E2562.9466
G1 X144.848 Y266.205 E2563.03446
G1 X144.513 Y266.081 E2563.11799
G1 X144.222 Y265.885 E2563.20003
G1 X143.981 Y265.623 E2563.28327
G1 X143.81 Y265.312 E2563.36626
G1 X143.717 Y264.975 E2563.44801
G1 X143.705 Y264.587 E2563.53878
G1 X144.094 Y260.137 E2564.58332
;TIME_ELAPSED:731.281193
;LAYER:16
G1 F2400 E2563.08332
;MESH:hook.stl
G0 F9000 X144.094 Y260.137 Z8.5
;TYPE:WALL-OUTER
G1 F2400 E2566.45402
G1 F900 X145.09 Y260.224 E2566.6878
G1 X144.65 Y265.25 E2567.86756
G1 X150.824 Y265.25 E2569.31127
G1 X151.798 Y265.141 E2569.54045
G1 X152.75 Y264.807 E2569.77636
G1 X153.604 Y264.27 E2570.01226
G1 X154.317 Y263.558 E2570.24788
G1 X154.853 Y262.704 E2570.48365
G1 X155.187 Y261.752 E2570.71956
G1 X155.296 Y260.778 E2570.94874
G1 X155.296 Y25.722 E2625.9134
G1 X155.187 Y24.748 E2626.14258
G1 X154.853 Y23.796 E2626.3785
G1 X154.317 Y22.942 E2626.61427
G1 X153.604 Y22.23 E2626.84989
G1 X152.75 Y21.693 E2627.08578
G1 X151.798 Y21.359 E2627.3217
G1 X150.824 Y21.25 E2627.55088
G1 X144.65 Y21.25 E2628.99458
G1 X145.09 Y26.276 E2630.17434
G1 X144.094 Y26.363 E2630.40813
G1 X143.705 Y21.913 E2631.45267
G1 X143.717 Y21.525 E2631.54344
G1 X143.81 Y21.188 E2631.62519
G1 X143.981 Y20.877 E2631.70818
G1 X144.222 Y20.615 E2631.79142
G1 X144.513 Y20.419 E2631.87347
G1 X144.848 Y20.295 E2631.95699
G1 X145.222 Y20.25 E2632.04508
G1 X150.775 Y20.25 E2633.34357
G1 X151.749 Y20.335 E2633.5722
G1 X152.679 Y20.584 E2633.79732
G1 X153.541 Y20.987 E2634.01983
G1 X154.329 Y21.538 E2634.24467
G1 X155.008 Y22.217 E2634.46922
G1 X155.559 Y23.005 E2634.69406
G1 X155.962 Y23.867 E2634.91656
G1 X156.211 Y24.797 E2635.14169
G1 X156.296 Y25.771 E2635.37031
G1 X156.296 Y260.729 E2690.31206
G1 X156.211 Y261.703 E2690.54068
G1 X155.962 Y262.633 E2690.76581
G1 X155.559 Y263.495 E2690.98832
G1 X155.008 Y264.283 E2691.21316
G1 X154.329 Y264.962 E2691.4377
G1 X153.541 Y265.513 E2691.66254
G1 X152.679 Y265.916 E2691.88505
G1 X151.749 Y266.165 E2692.11018
G1 X150.296 Y266.292 E2692.45124
G1 X150.296 Y278.75 E2695.36437
G1 X155.296 Y278.75 E2696.53356
G1 X155.296 Y275.778 E2697.22852
G1 X156.296 Y275.778 E2697.46236
G1 X156.296 Y278.215 E2698.03221
G1 X156.241 Y278.637 E2698.13173
G1 X156.092 Y278.996 E2698.22262
G1 X155.853 Y279.307 E2698.31434
G1 X155.542 Y279.546 E2698.40605
G1 X155.183 Y279.695 E2698.49694
G1 X154.761 Y279.75 E2698.59646
G1 X150.832 Y279.75 E2699.5152
G1 X150.408 Y279.694 E2699.61521
G1 X150.051 Y279.546 E2699.70558
G1 X149.739 Y279.307 E2699.79748
G1 X149.5 Y278.996 E2699.8892
G1 X149.351 Y278.637 E2699.98009
G1 X149.296 Y278.215 E2700.0796
G1 X149.296 Y266.25 E2702.87745
G1 X145.221 Y266.25 E2703.83034
G1 X144.848 Y266.205 E2703.91819
G1 X144.513 Y266.081 E2704.00172
G1 X144.222 Y265.885 E2704.08376
G1 X143.981 Y265.623 E2704.167
G1 X143.81 Y265.312 E2704.25
G1 X143.717 Y264.975 E2704.33174
G1 X143.705 Y264.587 E2704.42252
G1 X144.094 Y260.137 E2705.46706
;TIME_ELAPSED:771.417028
;LAYER:17
G1 F2400 E2703.96706
;MESH:hook.stl
G0 F9000 X144.094 Y260.137 Z9
;TYPE:WALL-OUTER
G1 F2400 E2707.33775
G1 F900 X145.09 Y260.224 E2707.57154
G1 X144.65 Y265.25 E2708.75129
G1 X150.824 Y265.25 E2710.195
G1 X151.798 Y265.141 E2710.42418
G1 X152.75 Y264.807 E2710.66009
G1 X153.604 Y264.27 E2710.89599
G1 X154.317 Y263.558 E2711.13161
G1 X154.853 Y262.704 E2711.36738
G1 X155.187 Y261.752 E2711.60329
G1 X155.296 Y260.778 E2711.83247
G1 X155.296 Y25.722 E2766.79714
G1 X155.187 Y24.748 E2767.02632
G1 X154.853 Y23.796 E2767.26223
G1 X154.317 Y22.942 E2767.498
G1 X153.604 Y22.23 E2767.73362
G1 X152.75 Y21.693 E2767.96952
G1 X151.798 Y21.359 E2768.20543
G1 X150.824 Y21.25 E2768.43461
G1 X144.65 Y21.25 E2769.87832
G1 X145.09 Y26.276 E2771.05807
G1 X144.094 Y26.363 E2771.29186
G1 X143.705 Y21.913 E2772.3364
G1 X143.717 Y21.525 E2772.42717
G1 X143.81 Y21.188 E2772.50892
G1 X143.981 Y20.877 E2772.59191
G1 X144.222 Y20.615 E2772.67516
G1 X144.513 Y20.419 E2772.7572
G1 X144.848 Y20.295 E2772.84073
G1 X145.222 Y20.25 E2772.92881
G1 X150.775 Y20.25 E2774.22731
G1 X151.749 Y20.335 E2774.45593
G1 X152.679 Y20.584 E2774.68106
G1 X153.541 Y20.987 E2774.90356
G1 X154.329 Y21.538 E2775.12841
G1 X155.008 Y22.217 E2775.35295
G1 X155.559 Y23.005 E2775.57779
G1 X155.962 Y23.867 E2775.8003
G1 X156.211 Y24.797 E2776.02542
G1 X156.296 Y25.771 E2776.25405
G1 X156.296 Y260.729 E2831.19579
G1 X156.211 Y261.703 E2831.42442
G1 X155.962 Y262.633 E2831.64954
G1 X155.559 Y263.495 E2831.87205
G1 X155.008 Y264.283 E2832.09689
G1 X154.329 Y264.962 E2832.32144
G1 X153.541 Y265.513 E2832.54628
G1 X152.679 Y265.916 E2832.76878
G1 X151.749 Y266.165 E2832.99391
G1 X150.296 Y266.292 E2833.33497
G1 X150.296 Y278.75 E2836.24811
G1 X155.296 Y278.75 E2837.41729
G1 X155.296 Y275.778 E2838.11225
G1 X156.296 Y275.778 E2838.34609
G1 X156.296 Y278.215 E2838.91595
G1 X156.241 Y278.637 E2839.01546
G1 X156.092 Y278.996 E2839.10635
G1 X155.853 Y279.307 E2839.19807
G1 X155.542 Y279.546 E2839.28979
G1 X155.183 Y279.695 E2839.38068
G1 X154.761 Y279.75 E2839.48019
G1 X150.832 Y279.75 E2840.39893
G1 X150.408 Y279.694 E2840.49894
G1 X150.051 Y279.546 E2840.58931
G1 X149.739 Y279.307 E2840.68121
G1 X149.5 Y278.996 E2840.77293
G1 X149.351 Y278.637 E2840.86382
G1 X149.296 Y278.215 E2840.96333
G1 X149.296 Y266.25 E2843.76119
G1 X145.221 Y266.25 E2844.71407
G1 X144.848 Y266.205 E2844.80192
G1 X144.513 Y266.081 E2844.88545
G1 X144.222 Y265.885 E2844.96749
G1 X143.981 Y265.623 E2845.05074
G1 X143.81 Y265.312 E2845.13373
G1 X143.717 Y264.975 E2845.21548
G1 X143.705 Y264.587 E2845.30625
G1 X144.094 Y260.137 E2846.35079
G1 F2400 E2844.85079
;MESH:NONMESH
G0 F300 X144.094 Y260.137 Z9.5
G0 F9000 X154.679 Y264.613
;TIME_ELAPSED:812.060109
;LAYER:18
;TYPE:WALL-OUTER
;MESH:hook.stl
G1 F2400 E2848.22148
G1 F900 X154.33 Y264.961 E2848.33673
G1 X153.541 Y265.513 E2848.56189
G1 X152.679 Y265.916 E2848.7844
G1 X151.749 Y266.165 E2849.00953
G1 X150.296 Y266.292 E2849.35059
G1 X150.296 Y278.75 E2852.26372
G1 X155.296 Y278.75 E2853.43291
G1 X155.296 Y264.869 E2856.67879
G1 X154.679 Y264.613 E2856.83499
G1 F2400 E2855.33499
G0 F9000 X156.241 Y261.302
G1 F2400 E2858.70569
G1 F900 X156.296 Y261.302 E2858.71855
G1 X156.296 Y278.215 E2862.67342
G1 X156.241 Y278.637 E2862.77294
G1 X156.092 Y278.996 E2862.86383
G1 X155.853 Y279.307 E2862.95554
G1 X155.542 Y279.546 E2863.04726
G1 X155.183 Y279.695 E2863.13815
G1 X154.761 Y279.75 E2863.23766
G1 X150.832 Y279.75 E2864.15641
G1 X150.408 Y279.694 E2864.25642
G1 X150.051 Y279.546 E2864.34678
G1 X149.739 Y279.307 E2864.43869
G1 X149.5 Y278.996 E2864.5304
G1 X149.351 Y278.637 E2864.62129
G1 X149.296 Y278.215 E2864.72081
G1 X149.296 Y266.25 E2867.51866
G1 X145.221 Y266.25 E2868.47155
G1 X144.848 Y266.205 E2868.5594
G1 X144.513 Y266.081 E2868.64293
G1 X144.222 Y265.885 E2868.72497
G1 X143.981 Y265.623 E2868.80821
G1 X143.81 Y265.312 E2868.8912
G1 X143.717 Y264.975 E2868.97295
G1 X143.705 Y264.587 E2869.06372
G1 X144.094 Y260.137 E2870.10826
G1 X145.09 Y260.224 E2870.34205
G1 X144.65 Y265.25 E2871.52181
G1 X150.824 Y265.25 E2872.96552
G1 X151.798 Y265.141 E2873.19469
G1 X152.75 Y264.807 E2873.43061
G1 X153.604 Y264.27 E2873.6665
G1 X154.317 Y263.558 E2873.90212
G1 X154.853 Y262.704 E2874.1379
G1 X155.187 Y261.752 E2874.37381
G1 X155.296 Y260.778 E2874.60299
G1 X155.296 Y25.722 E2929.56765
G1 X155.187 Y24.748 E2929.79683
G1 X154.853 Y23.796 E2930.03275
G1 X154.317 Y22.942 E2930.26852
G1 X153.604 Y22.23 E2930.50414
G1 X152.75 Y21.693 E2930.74003
G1 X151.798 Y21.359 E2930.97595
G1 X150.824 Y21.25 E2931.20513
G1 X144.65 Y21.25 E2932.64883
G1 X145.09 Y26.276 E2933.82859
G1 X144.094 Y26.363 E2934.06238
G1 X143.705 Y21.913 E2935.10692
G1 X143.717 Y21.525 E2935.19769
G1 X143.81 Y21.188 E2935.27944
G1 X143.981 Y20.877 E2935.36243
G1 X144.222 Y20.615 E2935.44567
G1 X144.513 Y20.419 E2935.52771
G1 X144.848 Y20.295 E2935.61124
G1 X145.222 Y20.25 E2935.69933
G1 X150.775 Y20.25 E2936.99782
G1 X151.749 Y20.335 E2937.22645
G1 X152.679 Y20.584 E2937.45157
G1 X153.541 Y20.987 E2937.67408
G1 X154.329 Y21.538 E2937.89892
G1 X155.008 Y22.217 E2938.12346
G1 X155.559 Y23.005 E2938.34831
G1 X155.962 Y23.867 E2938.57081
G1 X156.211 Y24.797 E2938.79594
G1 X156.296 Y25.771 E2939.02456
G1 X156.296 Y260.723 E2993.96491
G1 X156.241 Y261.302 E2994.10091
G1 F2400 E2992.60091
;MESH:NONMESH
G0 F300 X156.241 Y261.302 Z10
G0 F9000 X144.094 Y260.137
;TIME_ELAPSED:854.311203
;LAYER:19
;TYPE:WALL-OUTER
;MESH:hook.stl
G1 F2400 E2995.9716
G1 F900 X145.09 Y260.224 E2996.20539
G1 X144.65 Y265.25 E2997.38515
G1 X150.824 Y265.25 E2998.82885
G1 X151.798 Y265.141 E2999.05803
G1 X152.75 Y264.807 E2999.29395
G1 X153.604 Y264.27 E2999.52984
G1 X154.317 Y263.558 E2999.76546
G1 X154.853 Y262.704 E3000.00123
G1 X155.187 Y261.752 E3000.23715
G1 X155.296 Y260.778 E3000.46633
G1 X155.296 Y25.722 E3055.43099
G1 X155.187 Y24.748 E3055.66017
G1 X154.853 Y23.796 E3055.89608
G1 X154.317 Y22.942 E3056.13185
G1 X153.604 Y22.23 E3056.36747
G1 X152.75 Y21.693 E3056.60337
G1 X151.798 Y21.359 E3056.83928
G1 X150.824 Y21.25 E3057.06846
G1 X144.65 Y21.25 E3058.51217
G1 X145.09 Y26.276 E3059.69193
G1 X144.094 Y26.363 E3059.92571
G1 X143.705 Y21.913 E3060.97025
G1 X143.717 Y21.525 E3061.06103
G1 X143.81 Y21.188 E3061.14278
G1 X143.981 Y20.877 E3061.22577
G1 X144.222 Y20.615 E3061.30901
G1 X144.513 Y20.419 E3061.39105
G1 X144.848 Y20.295 E3061.47458
G1 X145.222 Y20.25 E3061.56267
G1 X150.775 Y20.25 E3062.86116
G1 X151.749 Y20.335 E3063.08978
G1 X152.679 Y20.584 E3063.31491
G1 X153.541 Y20.987 E3063.53742
G1 X154.329 Y21.538 E3063.76226
G1 X155.008 Y22.217 E3063.9868
G1 X155.559 Y23.005 E3064.21164
G1 X155.962 Y23.867 E3064.43415
G1 X156.211 Y24.797 E3064.65928
G1 X156.296 Y25.771 E3064.8879
G1 X156.296 Y260.729 E3119.82965
G1 X156.211 Y261.703 E3120.05827
G1 X155.962 Y262.633 E3120.2834
G1 X155.559 Y263.495 E3120.5059
G1 X155.008 Y264.283 E3120.73075
G1 X154.329 Y264.962 E3120.95529
G1 X153.541 Y265.513 E3121.18013
G1 X152.679 Y265.916 E3121.40264
G1 X151.749 Y266.165 E3121.62776
G1 X150.296 Y266.292 E3121.96882
G1 X150.296 Y278.75 E3124.88196
G1 X155.296 Y278.75 E3126.05114
G1 X155.296 Y271.5 E3127.74646
G1 X156.296 Y271.499 E3127.98029
G1 X156.296 Y278.215 E3129.55074
G1 X156.241 Y278.637 E3129.65025
G1 X156.092 Y278.996 E3129.74114
G1 X155.853 Y279.307 E3129.83286
G1 X155.542 Y279.546 E3129.92458
G1 X155.183 Y279.695 E3130.01547
G1 X154.761 Y279.75 E3130.11498
G1 X150.832 Y279.75 E3131.03372
G1 X150.408 Y279.694 E3131.13373
G1 X150.051 Y279.546 E3131.2241
G1 X149.739 Y279.307 E3131.316
G1 X149.5 Y278.996 E3131.40772
G1 X149.351 Y278.637 E3131.49861
G1 X149.296 Y278.215 E3131.59812
G1 X149.296 Y266.25 E3134.39598
G1 X145.221 Y266.25 E3135.34886
G1 X144.848 Y266.205 E3135.43671
G1 X144.513 Y266.081 E3135.52024
G1 X144.222 Y265.885 E3135.60229
G1 X143.981 Y265.623 E3135.68553
G1 X143.81 Y265.312 E3135.76852
G1 X143.717 Y264.975 E3135.85027
G1 X143.705 Y264.587 E3135.94104
G1 X144.094 Y260.137 E3136.98558
;TIME_ELAPSED:894.788488
;LAYER:20
G1 F2400 E3135.48558
;MESH:hook.stl
G0 F9000 X144.094 Y260.137 Z10.5
;TYPE:WALL-OUTER
G1 F2400 E3138.85627
G1 F900 X145.09 Y260.224 E3139.09006
G1 X144.65 Y265.25 E3140.26982
G1 X150.824 Y265.25 E3141.71352
G1 X151.798 Y265.141 E3141.9427
G1 X152.75 Y264.807 E3142.17862
G1 X153.604 Y264.27 E3142.41451
G1 X154.317 Y263.558 E3142.65013
G1 X154.853 Y262.704 E3142.8859
G1 X155.187 Y261.752 E3143.12182
G1 X155.296 Y260.778 E3143.351
G1 X155.296 Y25.722 E3198.31566
G1 X155.187 Y24.748 E3198.54484
G1 X154.853 Y23.796 E3198.78075
G1 X154.317 Y22.942 E3199.01652
G1 X153.604 Y22.23 E3199.25214
G1 X152.75 Y21.693 E3199.48804
G1 X151.798 Y21.359 E3199.72396
G1 X150.824 Y21.25 E3199.95313
G1 X144.65 Y21.25 E3201.39684
G1 X145.09 Y26.276 E3202.5766
G1 X144.094 Y26.363 E3202.81039
G1 X143.705 Y21.913 E3203.85493
G1 X143.717 Y21.525 E3203.9457
G1 X143.81 Y21.188 E3204.02745
G1 X143.981 Y20.877 E3204.11044
G1 X144.222 Y20.615 E3204.19368
G1 X144.513 Y20.419 E3204.27572
G1 X144.848 Y20.295 E3204.35925
G1 X145.222 Y20.25 E3204.44734
G1 X150.775 Y20.25 E3205.74583
G1 X151.749 Y20.335 E3205.97445
G1 X152.679 Y20.584 E3206.19958
G1 X153.541 Y20.987 E3206.42209
G1 X154.329 Y21.538 E3206.64693
G1 X155.008 Y22.217 E3206.87147
G1 X155.559 Y23.005 E3207.09631
G1 X155.962 Y23.867 E3207.31882
G1 X156.211 Y24.797 E3207.54395
G1 X156.296 Y25.771 E3207.77257
G1 X156.296 Y260.729 E3262.71432
G1 X156.211 Y261.703 E3262.94294
G1 X155.962 Y262.633 E3263.16807
G1 X155.559 Y263.495 E3263.39058
G1 X155.008 Y264.283 E3263.61542
G1 X154.329 Y264.962 E3263.83996
G1 X153.541 Y265.513 E3264.0648
G1 X152.679 Y265.916 E3264.28731
G1 X151.749 Y266.165 E3264.51244
G1 X150.296 Y266.292 E3264.8535
G1 X150.296 Y278.75 E3267.76663
G1 X155.296 Y278.75 E3268.93581
G1 X155.296 Y271 E3270.74805
G1 X156.296 Y270.999 E3270.98188
G1 X156.296 Y278.215 E3272.66925
G1 X156.241 Y278.637 E3272.76876
G1 X156.092 Y278.996 E3272.85965
G1 X155.853 Y279.307 E3272.95137
G1 X155.542 Y279.546 E3273.04308
G1 X155.183 Y279.695 E3273.13397
G1 X154.761 Y279.75 E3273.23349
G1 X150.832 Y279.75 E3274.15223
G1 X150.408 Y279.694 E3274.25224
G1 X150.051 Y279.546 E3274.34261
G1 X149.739 Y279.307 E3274.43451
G1 X149.5 Y278.996 E3274.52623
G1 X149.351 Y278.637 E3274.61712
G1 X149.296 Y278.215 E3274.71663
G1 X149.296 Y266.25 E3277.51448
G1 X145.221 Y266.25 E3278.46737
G1 X144.848 Y266.205 E3278.55522
G1 X144.513 Y266.081 E3278.63875
G1 X144.222 Y265.885 E3278.72079
G1 X143.981 Y265.623 E3278.80404
G1 X143.81 Y265.312 E3278.88703
G1 X143.717 Y264.975 E3278.96878
G1 X143.705 Y264.587 E3279.05955
G1 X144.094 Y260.137 E3280.10409
;TIME_ELAPSED:935.561457
;LAYER:21
G1 F2400 E3278.60409
;MESH:hook.stl
G0 F9000 X144.094 Y260.137 Z11
;TYPE:WALL-OUTER
G1 F2400 E3281.97478
G1 F900 X145.09 Y260.224 E3282.20857
G1 X144.65 Y265.25 E3283.38832
G1 X150.824 Y265.25 E3284.83203
G1 X151.798 Y265.141 E3285.06121
G1 X152.75 Y264.807 E3285.29712
G1 X153.604 Y264.27 E3285.53302
G1 X154.317 Y263.558 E3285.76864
G1 X154.853 Y262.704 E3286.00441
G1 X155.187 Y261.752 E3286.24033
G1 X155.296 Y260.778 E3286.4695
G1 X155.296 Y25.722 E3341.43417
G1 X155.187 Y24.748 E3341.66335
G1 X154.853 Y23.796 E3341.89926
G1 X154.317 Y22.942 E3342.13503
G1 X153.604 Y22.23 E3342.37065
G1 X152.75 Y21.693 E3342.60655
G1 X151.798 Y21.359 E3342.84246
G1 X150.824 Y21.25 E3343.07164
G1 X144.65 Y21.25 E3344.51535
G1 X145.09 Y26.276 E3345.69511
G1 X144.094 Y26.363 E3345.92889
G1 X143.705 Y21.913 E3346.97343
G1 X143.717 Y21.525 E3347.06421
G1 X143.81 Y21.188 E3347.14595
G1 X143.981 Y20.877 E3347.22895
G1 X144.222 Y20.615 E3347.31219
G1 X144.513 Y20.419 E3347.39423
G1 X144.848 Y20.295 E3347.47776
G1 X145.222 Y20.25 E3347.56584
G1 X150.775 Y20.25 E3348.86434
G1 X151.749 Y20.335 E3349.09296
G1 X152.679 Y20.584 E3349.31809
G1 X153.541 Y20.987 E3349.5406
G1 X154.329 Y21.538 E3349.76544
G1 X155.008 Y22.217 E3349.98998
G1 X155.559 Y23.005 E3350.21482
G1 X155.962 Y23.867 E3350.43733
G1 X156.211 Y24.797 E3350.66246
G1 X156.296 Y25.771 E3350.89108
G1 X156.296 Y260.729 E3405.83283
G1 X156.211 Y261.703 E3406.06145
G1 X155.962 Y262.633 E3406.28658
G1 X155.559 Y263.495 E3406.50908
G1 X155.008 Y264.283 E3406.73393
G1 X154.329 Y264.962 E3406.95847
G1 X153.541 Y265.513 E3407.18331
G1 X152.679 Y265.916 E3407.40582
G1 X151.749 Y266.165 E3407.63094
G1 X150.296 Y266.292 E3407.972
G1 X150.296 Y278.75 E3410.88514
G1 X155.296 Y278.75 E3412.05432
G1 X155.296 Y270.5 E3413.98347
G1 X156.296 Y270.499 E3414.21731
G1 X156.296 Y278.215 E3416.02159
G1 X156.241 Y278.637 E3416.1211
G1 X156.092 Y278.996 E3416.21199
G1 X155.853 Y279.307 E3416.30371
G1 X155.542 Y279.546 E3416.39543
G1 X155.183 Y279.695 E3416.48632
G1 X154.761 Y279.75 E3416.58583
G1 X150.832 Y279.75 E3417.50458
G1 X150.408 Y279.694 E3417.60458
G1 X150.051 Y279.546 E3417.69495
G1 X149.739 Y279.307 E3417.78685
G1 X149.5 Y278.996 E3417.87857
G1 X149.351 Y278.637 E3417.96946
G1 X149.296 Y278.215 E3418.06898
G1 X149.296 Y266.25 E3420.86683
G1 X145.221 Y266.25 E3421.81971
G1 X144.848 Y266.205 E3421.90757
G1 X144.513 Y266.081 E3421.9911
G1 X144.222 Y265.885 E3422.07314
G1 X143.981 Y265.623 E3422.15638
G1 X143.81 Y265.312 E3422.23937
G1 X143.717 Y264.975 E3422.32112
G1 X143.705 Y264.587 E3422.41189
G1 X144.094 Y260.137 E3423.45643
;TIME_ELAPSED:976.401092
;LAYER:22
G1 F2400 E3421.95643
;MESH:hook.stl
G0 F9000 X144.094 Y260.137 Z11.5
;TYPE:WALL-OUTER
G1 F2400 E3425.32712
G1 F900 X145.09 Y260.224 E3425.56091
G1 X144.65 Y265.25 E3426.74067
G1 X150.824 Y265.25 E3428.18437
G1 X151.798 Y265.141 E3428.41355
G1 X152.75 Y264.807 E3428.64947
G1 X153.604 Y264.27 E3428.88536
G1 X154.317 Y263.558 E3429.12098
G1 X154.853 Y262.704 E3429.35675
G1 X155.187 Y261.752 E3429.59267
G1 X155.296 Y260.778 E3429.82185
G1 X155.296 Y25.722 E3484.78651
G1 X155.187 Y24.748 E3485.01569
G1 X154.853 Y23.796 E3485.25161
G1 X154.317 Y22.942 E3485.48738
G1 X153.604 Y22.23 E3485.723
G1 X152.75 Y21.693 E3485.95889
G1 X151.798 Y21.359 E3486.19481
G1 X150.824 Y21.25 E3486.42399
G1 X144.65 Y21.25 E3487.86769
G1 X145.09 Y26.276 E3489.04745
G1 X144.094 Y26.363 E3489.28124
G1 X143.705 Y21.913 E3490.32578
G1 X143.717 Y21.525 E3490.41655
G1 X143.81 Y21.188 E3490.4983
G1 X143.981 Y20.877 E3490.58129
G1 X144.222 Y20.615 E3490.66453
G1 X144.513 Y20.419 E3490.74657
G1 X144.848 Y20.295 E3490.8301
G1 X145.222 Y20.25 E3490.91819
G1 X150.775 Y20.25 E3492.21668
G1 X151.749 Y20.335 E3492.4453
G1 X152.679 Y20.584 E3492.67043
G1 X153.541 Y20.987 E3492.89294
G1 X154.329 Y21.538 E3493.11778
G1 X155.008 Y22.217 E3493.34232
G1 X155.559 Y23.005 E3493.56716
G1 X155.962 Y23.867 E3493.78967
G1 X156.211 Y24.797 E3494.0148
G1 X156.296 Y25.771 E3494.24342
G1 X156.296 Y260.729 E3549.18517
G1 X156.211 Y261.703 E3549.41379
G1 X155.962 Y262.633 E3549.63892
G1 X155.559 Y263.495 E3549.86143
G1 X155.008 Y264.283 E3550.08627
G1 X154.329 Y264.962 E3550.31081
G1 X153.541 Y265.513 E3550.53565
G1 X152.679 Y265.916 E3550.75816
G1 X151.749 Y266.165 E3550.98329
G1 X150.296 Y266.292 E3551.32435
G1 X150.296 Y278.75 E3554.23748
G1 X155.296 Y278.75 E3555.40666
G1 X155.296 Y270 E3557.45273
G1 X156.296 Y269.999 E3557.68657
G1 X156.296 Y278.215 E3559.60777
G1 X156.241 Y278.637 E3559.70728
G1 X156.092 Y278.996 E3559.79817
G1 X155.853 Y279.307 E3559.88989
G1 X155.542 Y279.546 E3559.98161
G1 X155.183 Y279.695 E3560.0725
G1 X154.761 Y279.75 E3560.17201
G1 X150.832 Y279.75 E3561.09076
G1 X150.408 Y279.694 E3561.19076
G1 X150.051 Y279.546 E3561.28113
G1 X149.739 Y279.307 E3561.37304
G1 X149.5 Y278.996 E3561.46475
G1 X149.351 Y278.637 E3561.55564
G1 X149.296 Y278.215 E3561.65516
G1 X149.296 Y266.25 E3564.45301
G1 X145.221 Y266.25 E3565.40589
G1 X144.848 Y266.205 E3565.49375
G1 X144.513 Y266.081 E3565.57728
G1 X144.222 Y265.885 E3565.65932
G1 X143.981 Y265.623 E3565.74256
G1 X143.81 Y265.312 E3565.82555
G1 X143.717 Y264.975 E3565.9073
G1 X143.705 Y264.587 E3565.99807
G1 X144.094 Y260.137 E3567.04261
;TIME_ELAPSED:1017.307394
;LAYER:23
G1 F2400 E3565.54261
;MESH:hook.stl
G0 F9000 X144.094 Y260.137 Z12
;TYPE:WALL-OUTER
G1 F2400 E3568.9133
G1 F900 X145.09 Y260.224 E3569.14709
G1 X144.65 Y265.25 E3570.32685
G1 X150.824 Y265.25 E3571.77056
G1 X151.798 Y265.141 E3571.99973
G1 X152.75 Y264.807 E3572.23565
G1 X153.604 Y264.27 E3572.47154
G1 X154.317 Y263.558 E3572.70716
G1 X154.853 Y262.704 E3572.94294
G1 X155.187 Y261.752 E3573.17885
G1 X155.296 Y260.778 E3573.40803
G1 X155.296 Y25.722 E3628.37269
G1 X155.187 Y24.748 E3628.60187
G1 X154.853 Y23.796 E3628.83779
G1 X154.317 Y22.942 E3629.07356
G1 X153.604 Y22.23 E3629.30918
G1 X152.75 Y21.693 E3629.54507
G1 X151.798 Y21.359 E3629.78099
G1 X150.824 Y21.25 E3630.01017
G1 X144.65 Y21.25 E3631.45387
G1 X145.09 Y26.276 E3632.63363
G1 X144.094 Y26.363 E3632.86742
G1 X143.705 Y21.913 E3633.91196
G1 X143.717 Y21.525 E3634.00273
G1 X143.81 Y21.188 E3634.08448
G1 X143.981 Y20.877 E3634.16747
G1 X144.222 Y20.615 E3634.25071
G1 X144.513 Y20.419 E3634.33275
G1 X144.848 Y20.295 E3634.41628
G1 X145.222 Y20.25 E3634.50437
G1 X150.775 Y20.25 E3635.80286
G1 X151.749 Y20.335 E3636.03149
G1 X152.679 Y20.584 E3636.25661
G1 X153.541 Y20.987 E3636.47912
G1 X154.329 Y21.538 E3636.70396
G1 X155.008 Y22.217 E3636.9285
G1 X155.559 Y23.005 E3637.15335
G1 X155.962 Y23.867 E3637.37585
G1 X156.211 Y24.797 E3637.60098
G1 X156.296 Y25.771 E3637.8296
G1 X156.296 Y260.729 E3692.77135
G1 X156.211 Y261.703 E3692.99997
G1 X155.962 Y262.633 E3693.2251
G1 X155.559 Y263.495 E3693.44761
G1 X155.008 Y264.283 E3693.67245
G1 X154.329 Y264.962 E3693.89699
G1 X153.541 Y265.513 E3694.12183
G1 X152.679 Y265.916 E3694.34434
G1 X151.749 Y266.165 E3694.56947
G1 X150.296 Y266.292 E3694.91053
G1 X150.296 Y278.75 E3697.82366
G1 X155.296 Y278.75 E3698.99285
G1 X155.296 Y269.75 E3701.09737
G1 X156.296 Y269.75 E3701.33121
G1 X156.296 Y278.215 E3703.31064
G1 X156.241 Y278.637 E3703.41015
G1 X156.092 Y278.996 E3703.50104
G1 X155.853 Y279.307 E3703.59276
G1 X155.542 Y279.546 E3703.68447
G1 X155.183 Y279.695 E3703.77536
G1 X154.761 Y279.75 E3703.87488
G1 X150.832 Y279.75 E3704.79362
G1 X150.408 Y279.694 E3704.89363
G1 X150.051 Y279.546 E3704.984
G1 X149.739 Y279.307 E3705.0759
G1 X149.5 Y278.996 E3705.16762
G1 X149.351 Y278.637 E3705.25851
G1 X149.296 Y278.215 E3705.35802
G1 X149.296 Y266.25 E3708.15587
G1 X145.221 Y266.25 E3709.10876
G1 X144.848 Y266.205 E3709.19661
G1 X144.513 Y266.081 E3709.28014
G1 X144.222 Y265.885 E3709.36218
G1 X143.981 Y265.623 E3709.44543
G1 X143.81 Y265.312 E3709.52842
G1 X143.717 Y264.975 E3709.61016
G1 X143.705 Y264.587 E3709.70094
G1 X144.094 Y260.137 E3710.74548
;TIME_ELAPSED:1058.246963
;LAYER:24
G1 F2400 E3709.24548
;MESH:hook.stl
G0 F9000 X144.094 Y260.137 Z12.5
;TYPE:WALL-OUTER
G1 F2400 E3712.61617
G1 F900 X145.09 Y260.224 E3712.84996
G1 X144.65 Y265.25 E3714.02971
G1 X150.824 Y265.25 E3715.47342
G1 X151.798 Y265.141 E3715.7026
G1 X152.75 Y264.807 E3715.93851
G1 X153.604 Y264.27 E3716.17441
G1 X154.317 Y263.558 E3716.41003
G1 X154.853 Y262.704 E3716.6458
G1 X155.187 Y261.752 E3716.88172
G1 X155.296 Y260.778 E3717.11089
G1 X155.296 Y25.722 E3772.07556
G1 X155.187 Y24.748 E3772.30474
G1 X154.853 Y23.796 E3772.54065
G1 X154.317 Y22.942 E3772.77642
G1 X153.604 Y22.23 E3773.01204
G1 X152.75 Y21.693 E3773.24794
G1 X151.798 Y21.359 E3773.48385
G1 X150.824 Y21.25 E3773.71303
G1 X144.65 Y21.25 E3775.15674
G1 X145.09 Y26.276 E3776.33649
G1 X144.094 Y26.363 E3776.57028
G1 X143.705 Y21.913 E3777.61482
G1 X143.717 Y21.525 E3777.70559
G1 X143.81 Y21.188 E3777.78734
G1 X143.981 Y20.877 E3777.87033
G1 X144.222 Y20.615 E3777.95358
G1 X144.513 Y20.419 E3778.03562
G1 X144.848 Y20.295 E3778.11915
G1 X145.222 Y20.25 E3778.20723
G1 X150.775 Y20.25 E3779.50573
G1 X151.749 Y20.335 E3779.73435
G1 X152.679 Y20.584 E3779.95948
G1 X153.541 Y20.987 E3780.18199
G1 X154.329 Y21.538 E3780.40683
G1 X155.008 Y22.217 E3780.63137
G1 X155.559 Y23.005 E3780.85621
G1 X155.962 Y23.867 E3781.07872
G1 X156.211 Y24.797 E3781.30385
G1 X156.296 Y25.771 E3781.53247
G1 X156.296 Y260.729 E3836.47422
G1 X156.211 Y261.703 E3836.70284
G1 X155.962 Y262.633 E3836.92797
G1 X155.559 Y263.495 E3837.15047
G1 X155.008 Y264.283 E3837.37531
G1 X154.329 Y264.962 E3837.59986
G1 X153.541 Y265.513 E3837.8247
G1 X152.679 Y265.916 E3838.04721
G1 X151.749 Y266.165 E3838.27233
G1 X150.296 Y266.292 E3838.61339
G1 X150.296 Y278.75 E3841.52653
G1 X155.296 Y278.75 E3842.69571
G1 X155.296 Y269.75 E3844.80024
G1 X156.296 Y269.75 E3845.03407
G1 X156.296 Y278.215 E3847.0135
G1 X156.241 Y278.637 E3847.11301
G1 X156.092 Y278.996 E3847.2039
G1 X155.853 Y279.307 E3847.29562
G1 X155.542 Y279.546 E3847.38734
G1 X155.183 Y279.695 E3847.47823
G1 X154.761 Y279.75 E3847.57774
G1 X150.832 Y279.75 E3848.49649
G1 X150.408 Y279.694 E3848.59649
G1 X150.051 Y279.546 E3848.68686
G1 X149.739 Y279.307 E3848.77876
G1 X149.5 Y278.996 E3848.87048
G1 X149.351 Y278.637 E3848.96137
G1 X149.296 Y278.215 E3849.06089
G1 X149.296 Y266.25 E3851.85874
G1 X145.221 Y266.25 E3852.81162
G1 X144.848 Y266.205 E3852.89948
G1 X144.513 Y266.081 E3852.98301
G1 X144.222 Y265.885 E3853.06505
G1 X143.981 Y265.623 E3853.14829
G1 X143.81 Y265.312 E3853.23128
G1 X143.717 Y264.975 E3853.31303
G1 X143.705 Y264.587 E3853.4038
G1 X144.094 Y260.137 E3854.44834
;TIME_ELAPSED:1099.186532
;LAYER:25
G1 F2400 E3852.94834
;MESH:hook.stl
G0 F9000 X144.094 Y260.137 Z13
;TYPE:WALL-OUTER
G1 F2400 E3856.31903
G1 F900 X145.09 Y260.224 E3856.55282
G1 X144.65 Y265.25 E3857.73258
G1 X150.824 Y265.25 E3859.17629
G1 X151.798 Y265.141 E3859.40546
G1 X152.75 Y264.807 E3859.64138
G1 X153.604 Y264.27 E3859.87727
G1 X154.317 Y263.558 E3860.11289
G1 X154.853 Y262.704 E3860.34866
G1 X155.187 Y261.752 E3860.58458
G1 X155.296 Y260.778 E3860.81376
G1 X155.296 Y25.722 E3915.77842
G1 X155.187 Y24.748 E3916.0076
G1 X154.853 Y23.796 E3916.24352
G1 X154.317 Y22.942 E3916.47929
G1 X153.604 Y22.23 E3916.71491
G1 X152.75 Y21.693 E3916.9508
G1 X151.798 Y21.359 E3917.18672
G1 X150.824 Y21.25 E3917.4159
G1 X144.65 Y21.25 E3918.8596
G1 X145.09 Y26.276 E3920.03936
G1 X144.094 Y26.363 E3920.27315
G1 X143.705 Y21.913 E3921.31769
G1 X143.717 Y21.525 E3921.40846
G1 X143.81 Y21.188 E3921.49021
G1 X143.981 Y20.877 E3921.5732
G1 X144.222 Y20.615 E3921.65644
G1 X144.513 Y20.419 E3921.73848
G1 X144.848 Y20.295 E3921.82201
G1 X145.222 Y20.25 E3921.9101
G1 X150.775 Y20.25 E3923.20859
G1 X151.749 Y20.335 E3923.43721
G1 X152.679 Y20.584 E3923.66234
G1 X153.541 Y20.987 E3923.88485
G1 X154.329 Y21.538 E3924.10969
G1 X155.008 Y22.217 E3924.33423
G1 X155.559 Y23.005 E3924.55907
G1 X155.962 Y23.867 E3924.78158
G1 X156.211 Y24.797 E3925.00671
G1 X156.296 Y25.771 E3925.23533
G1 X156.296 Y260.729 E3980.17708
G1 X156.211 Y261.703 E3980.4057
G1 X155.962 Y262.633 E3980.63083
G1 X155.559 Y263.495 E3980.85334
G1 X155.008 Y264.283 E3981.07818
G1 X154.329 Y264.962 E3981.30272
G1 X153.541 Y265.513 E3981.52756
G1 X152.679 Y265.916 E3981.75007
G1 X151.749 Y266.165 E3981.9752
G1 X150.296 Y266.292 E3982.31626
G1 X150.296 Y278.75 E3985.22939
G1 X155.296 Y278.75 E3986.39857
G1 X155.296 Y269.75 E3988.5031
G1 X156.296 Y269.75 E3988.73694
G1 X156.296 Y278.215 E3990.71637
G1 X156.241 Y278.637 E3990.81588
G1 X156.092 Y278.996 E3990.90677
G1 X155.853 Y279.307 E3990.99849
G1 X155.542 Y279.546 E3991.0902
G1 X155.183 Y279.695 E3991.18109
G1 X154.761 Y279.75 E3991.28061
G1 X150.832 Y279.75 E3992.19935
G1 X150.408 Y279.694 E3992.29936
G1 X150.051 Y279.546 E3992.38973
G1 X149.739 Y279.307 E3992.48163
G1 X149.5 Y278.996 E3992.57335
G1 X149.351 Y278.637 E3992.66424
G1 X149.296 Y278.215 E3992.76375
G1 X149.296 Y266.25 E3995.5616
G1 X145.221 Y266.25 E3996.51449
G1 X144.848 Y266.205 E3996.60234
G1 X144.513 Y266.081 E3996.68587
G1 X144.222 Y265.885 E3996.76791
G1 X143.981 Y265.623 E3996.85115
G1 X143.81 Y265.312 E3996.93415
G1 X143.717 Y264.975 E3997.01589
G1 X143.705 Y264.587 E3997.10667
G1 X144.094 Y260.137 E3998.15121
;TIME_ELAPSED:1140.126101
;LAYER:26
G1 F2400 E3996.65121
;MESH:hook.stl
G0 F9000 X144.094 Y260.137 Z13.5
;TYPE:WALL-OUTER
G1 F2400 E4000.0219
G1 F900 X145.09 Y260.224 E4000.25569
G1 X144.65 Y265.25 E4001.43544
G1 X150.824 Y265.25 E4002.87915
G1 X151.798 Y265.141 E4003.10833
G1 X152.75 Y264.807 E4003.34424
G1 X153.604 Y264.27 E4003.58014
G1 X154.317 Y263.558 E4003.81576
G1 X154.853 Y262.704 E4004.05153
G1 X155.187 Y261.752 E4004.28744
G1 X155.296 Y260.778 E4004.51662
G1 X155.296 Y25.722 E4059.48129
G1 X155.187 Y24.748 E4059.71047
G1 X154.853 Y23.796 E4059.94638
G1 X154.317 Y22.942 E4060.18215
G1 X153.604 Y22.23 E4060.41777
G1 X152.75 Y21.693 E4060.65367
G1 X151.798 Y21.359 E4060.88958
G1 X150.824 Y21.25 E4061.11876
G1 X144.65 Y21.25 E4062.56247
G1 X145.09 Y26.276 E4063.74222
G1 X144.094 Y26.363 E4063.97601
G1 X143.705 Y21.913 E4065.02055
G1 X143.717 Y21.525 E4065.11132
G1 X143.81 Y21.188 E4065.19307
G1 X143.981 Y20.877 E4065.27606
G1 X144.222 Y20.615 E4065.35931
G1 X144.513 Y20.419 E4065.44135
G1 X144.848 Y20.295 E4065.52488
G1 X145.222 Y20.25 E4065.61296
G1 X150.775 Y20.25 E4066.91146
G1 X151.749 Y20.335 E4067.14008
G1 X152.679 Y20.584 E4067.36521
G1 X153.541 Y20.987 E4067.58772
G1 X154.329 Y21.538 E4067.81256
G1 X155.008 Y22.217 E4068.0371
G1 X155.559 Y23.005 E4068.26194
G1 X155.962 Y23.867 E4068.48445
G1 X156.211 Y24.797 E4068.70958
G1 X156.296 Y25.771 E4068.9382
G1 X156.296 Y260.729 E4123.87995
G1 X156.211 Y261.703 E4124.10857
G1 X155.962 Y262.633 E4124.3337
G1 X155.559 Y263.495 E4124.5562
G1 X155.008 Y264.283 E4124.78104
G1 X154.329 Y264.962 E4125.00559
G1 X153.541 Y265.513 E4125.23043
G1 X152.679 Y265.916 E4125.45294
G1 X151.749 Y266.165 E4125.67806
G1 X150.296 Y266.292 E4126.01912
G1 X150.296 Y278.75 E4128.93226
G1 X155.296 Y278.75 E4130.10144
G1 X155.296 Y269.75 E4132.20597
G1 X156.296 Y269.75 E4132.4398
G1 X156.296 Y278.215 E4134.41923
G1 X156.241 Y278.637 E4134.51874
G1 X156.092 Y278.996 E4134.60963
G1 X155.853 Y279.307 E4134.70135
G1 X155.542 Y279.546 E4134.79307
G1 X155.183 Y279.695 E4134.88396
G1 X154.761 Y279.75 E4134.98347
G1 X150.832 Y279.75 E4135.90222
G1 X150.408 Y279.694 E4136.00222
G1 X150.051 Y279.546 E4136.09259
G1 X149.739 Y279.307 E4136.18449
G1 X149.5 Y278.996 E4136.27621
G1 X149.351 Y278.637 E4136.3671
G1 X149.296 Y278.215 E4136.46662
G1 X149.296 Y266.25 E4139.26447
G1 X145.221 Y266.25 E4140.21735
G1 X144.848 Y266.205 E4140.30521
G1 X144.513 Y266.081 E4140.38874
G1 X144.222 Y265.885 E4140.47078
G1 X143.981 Y265.623 E4140.55402
G1 X143.81 Y265.312 E4140.63701
G1 X143.717 Y264.975 E4140.71876
G1 X143.705 Y264.587 E4140.80953
G1 X144.094 Y260.137 E4141.85407
;TIME_ELAPSED:1181.065670
;LAYER:27
G1 F2400 E4140.35407
;MESH:hook.stl
G0 F9000 X144.094 Y260.137 Z14
;TYPE:WALL-OUTER
G1 F2400 E4143.72476
G1 F900 X145.09 Y260.224 E4143.95855
G1 X144.65 Y265.25 E4145.13831
G1 X150.824 Y265.25 E4146.58201
G1 X151.798 Y265.141 E4146.81119
G1 X152.75 Y264.807 E4147.04711
G1 X153.604 Y264.27 E4147.283
G1 X154.317 Y263.558 E4147.51862
G1 X154.853 Y262.704 E4147.75439
G1 X155.187 Y261.752 E4147.99031
G1 X155.296 Y260.778 E4148.21949
G1 X155.296 Y25.722 E4203.18415
G1 X155.187 Y24.748 E4203.41333
G1 X154.853 Y23.796 E4203.64925
G1 X154.317 Y22.942 E4203.88502
G1 X153.604 Y22.23 E4204.12064
G1 X152.75 Y21.693 E4204.35653
G1 X151.798 Y21.359 E4204.59245
G1 X150.824 Y21.25 E4204.82163
G1 X144.65 Y21.25 E4206.26533
G1 X145.09 Y26.276 E4207.44509
G1 X144.094 Y26.363 E4207.67888
G1 X143.705 Y21.913 E4208.72342
G1 X143.717 Y21.525 E4208.81419
G1 X143.81 Y21.188 E4208.89594
G1 X143.981 Y20.877 E4208.97893
G1 X144.222 Y20.615 E4209.06217
G1 X144.513 Y20.419 E4209.14421
G1 X144.848 Y20.295 E4209.22774
G1 X145.222 Y20.25 E4209.31583
G1 X150.775 Y20.25 E4210.61432
G1 X151.749 Y20.335 E4210.84294
G1 X152.679 Y20.584 E4211.06807
G1 X153.541 Y20.987 E4211.29058
G1 X154.329 Y21.538 E4211.51542
G1 X155.008 Y22.217 E4211.73996
G1 X155.559 Y23.005 E4211.9648
G1 X155.962 Y23.867 E4212.18731
G1 X156.211 Y24.797 E4212.41244
G1 X156.296 Y25.771 E4212.64106
G1 X156.296 Y260.729 E4267.58281
G1 X156.211 Y261.703 E4267.81143
G1 X155.962 Y262.633 E4268.03656
G1 X155.559 Y263.495 E4268.25907
G1 X155.008 Y264.283 E4268.48391
G1 X154.329 Y264.962 E4268.70845
G1 X153.541 Y265.513 E4268.93329
G1 X152.679 Y265.916 E4269.1558
G1 X151.749 Y266.165 E4269.38093
G1 X150.296 Y266.292 E4269.72199
G1 X150.296 Y278.75 E4272.63512
G1 X155.296 Y278.75 E4273.8043
G1 X155.296 Y269.75 E4275.90883
G1 X156.296 Y269.75 E4276.14267
G1 X156.296 Y278.215 E4278.12209
G1 X156.241 Y278.637 E4278.22161
G1 X156.092 Y278.996 E4278.3125
G1 X155.853 Y279.307 E4278.40422
G1 X155.542 Y279.546 E4278.49593
G1 X155.183 Y279.695 E4278.58682
G1 X154.761 Y279.75 E4278.68634
G1 X150.832 Y279.75 E4279.60508
G1 X150.408 Y279.694 E4279.70509
G1 X150.051 Y279.546 E4279.79546
G1 X149.739 Y279.307 E4279.88736
G1 X149.5 Y278.996 E4279.97908
G1 X149.351 Y278.637 E4280.06997
G1 X149.296 Y278.215 E4280.16948
G1 X149.296 Y266.25 E4282.96733
G1 X145.221 Y266.25 E4283.92022
G1 X144.848 Y266.205 E4284.00807
G1 X144.513 Y266.081 E4284.0916
G1 X144.222 Y265.885 E4284.17364
G1 X143.981 Y265.623 E4284.25688
G1 X143.81 Y265.312 E4284.33988
G1 X143.717 Y264.975 E4284.42162
G1 X143.705 Y264.587 E4284.5124
G1 X144.094 Y260.137 E4285.55694
;TIME_ELAPSED:1222.005239
;LAYER:28
G1 F2400 E4284.05694
;MESH:hook.stl
G0 F9000 X144.094 Y260.137 Z14.5
;TYPE:WALL-OUTER
G1 F2400 E4287.42763
G1 F900 X145.09 Y260.224 E4287.66142
G1 X144.65 Y265.25 E4288.84117
G1 X150.824 Y265.25 E4290.28488
G1 X151.798 Y265.141 E4290.51406
G1 X152.75 Y264.807 E4290.74997
G1 X153.604 Y264.27 E4290.98587
G1 X154.317 Y263.558 E4291.22149
G1 X154.853 Y262.704 E4291.45726
G1 X155.187 Y261.752 E4291.69317
G1 X155.296 Y260.778 E4291.92235
G1 X155.296 Y25.722 E4346.88702
G1 X155.187 Y24.748 E4347.1162
G1 X154.853 Y23.796 E4347.35211
G1 X154.317 Y22.942 E4347.58788
G1 X153.604 Y22.23 E4347.8235
G1 X152.75 Y21.693 E4348.0594
G1 X151.798 Y21.359 E4348.29531
G1 X150.824 Y21.25 E4348.52449
G1 X144.65 Y21.25 E4349.9682
G1 X145.09 Y26.276 E4351.14795
G1 X144.094 Y26.363 E4351.38174
G1 X143.705 Y21.913 E4352.42628
G1 X143.717 Y21.525 E4352.51705
G1 X143.81 Y21.188 E4352.5988
G1 X143.981 Y20.877 E4352.68179
G1 X144.222 Y20.615 E4352.76504
G1 X144.513 Y20.419 E4352.84708
G1 X144.848 Y20.295 E4352.93061
G1 X145.222 Y20.25 E4353.01869
G1 X150.775 Y20.25 E4354.31719
G1 X151.749 Y20.335 E4354.54581
G1 X152.679 Y20.584 E4354.77094
G1 X153.541 Y20.987 E4354.99344
G1 X154.329 Y21.538 E4355.21829
G1 X155.008 Y22.217 E4355.44283
G1 X155.559 Y23.005 E4355.66767
G1 X155.962 Y23.867 E4355.89018
G1 X156.211 Y24.797 E4356.1153
G1 X156.296 Y25.771 E4356.34393
G1 X156.296 Y260.729 E4411.28567
G1 X156.211 Y261.703 E4411.5143
G1 X155.962 Y262.633 E4411.73942
G1 X155.559 Y263.495 E4411.96193
G1 X155.008 Y264.283 E4412.18677
G1 X154.329 Y264.962 E4412.41132
G1 X153.541 Y265.513 E4412.63616
G1 X152.679 Y265.916 E4412.85866
G1 X151.749 Y266.165 E4413.08379
G1 X150.296 Y266.292 E4413.42485
G1 X150.296 Y278.75 E4416.33799
G1 X155.296 Y278.75 E4417.50717
G1 X155.296 Y269.75 E4419.6117
G1 X156.296 Y269.75 E4419.84553
G1 X156.296 Y278.215 E4421.82496
G1 X156.241 Y278.637 E4421.92447
G1 X156.092 Y278.996 E4422.01536
G1 X155.853 Y279.307 E4422.10708
G1 X155.542 Y279.546 E4422.1988
G1 X155.183 Y279.695 E4422.28969
G1 X154.761 Y279.75 E4422.3892
G1 X150.832 Y279.75 E4423.30795
G1 X150.408 Y279.694 E4423.40795
G1 X150.051 Y279.546 E4423.49832
G1 X149.739 Y279.307 E4423.59022
G1 X149.5 Y278.996 E4423.68194
G1 X149.351 Y278.637 E4423.77283
G1 X149.296 Y278.215 E4423.87235
G1 X149.296 Y266.25 E4426.6702
G1 X145.221 Y266.25 E4427.62308
G1 X144.848 Y266.205 E4427.71094
G1 X144.513 Y266.081 E4427.79447
G1 X144.222 Y265.885 E4427.87651
G1 X143.981 Y265.623 E4427.95975
G1 X143.81 Y265.312 E4428.04274
G1 X143.717 Y264.975 E4428.12449
G1 X143.705 Y264.587 E4428.21526
G1 X144.094 Y260.137 E4429.2598
;TIME_ELAPSED:1262.944808
;LAYER:29
G1 F2400 E4427.7598
;MESH:hook.stl
G0 F9000 X144.094 Y260.137 Z15
;TYPE:WALL-OUTER
G1 F2400 E4431.13049
G1 F900 X145.09 Y260.224 E4431.36428
G1 X144.65 Y265.25 E4432.54404
G1 X150.824 Y265.25 E4433.98774
G1 X151.798 Y265.141 E4434.21692
G1 X152.75 Y264.807 E4434.45284
G1 X153.604 Y264.27 E4434.68873
G1 X154.317 Y263.558 E4434.92435
G1 X154.853 Y262.704 E4435.16012
G1 X155.187 Y261.752 E4435.39604
G1 X155.296 Y260.778 E4435.62522
G1 X155.296 Y25.722 E4490.58988
G1 X155.187 Y24.748 E4490.81906
G1 X154.853 Y23.796 E4491.05498
G1 X154.317 Y22.942 E4491.29075
G1 X153.604 Y22.23 E4491.52637
G1 X152.75 Y21.693 E4491.76226
G1 X151.798 Y21.359 E4491.99818
G1 X150.824 Y21.25 E4492.22736
G1 X144.65 Y21.25 E4493.67106
G1 X145.09 Y26.276 E4494.85082
G1 X144.094 Y26.363 E4495.08461
G1 X143.705 Y21.899 E4496.13241
G1 X143.717 Y21.525 E4496.21991
G1 X143.81 Y21.188 E4496.30166
G1 X143.981 Y20.877 E4496.38465
G1 X144.222 Y20.615 E4496.46789
G1 X144.513 Y20.419 E4496.54993
G1 X144.848 Y20.295 E4496.63346
G1 X145.222 Y20.25 E4496.72155
G1 X150.775 Y20.25 E4498.02004
G1 X151.749 Y20.335 E4498.24866
G1 X152.679 Y20.584 E4498.47379
G1 X153.541 Y20.987 E4498.6963
G1 X154.329 Y21.538 E4498.92114
G1 X155.008 Y22.217 E4499.14568
G1 X155.559 Y23.005 E4499.37052
G1 X155.962 Y23.867 E4499.59303
G1 X156.211 Y24.797 E4499.81816
G1 X156.296 Y25.771 E4500.04678
G1 X156.296 Y260.729 E4554.98853
G1 X156.211 Y261.703 E4555.21715
G1 X155.962 Y262.633 E4555.44228
G1 X155.559 Y263.495 E4555.66479
G1 X155.008 Y264.283 E4555.88963
G1 X154.329 Y264.962 E4556.11417
G1 X153.541 Y265.513 E4556.33901
G1 X152.679 Y265.916 E4556.56152
G1 X151.749 Y266.165 E4556.78665
G1 X150.296 Y266.292 E4557.12771
G1 X150.296 Y278.75 E4560.04084
G1 X155.296 Y278.75 E4561.21002
G1 X155.296 Y269.75 E4563.31455
G1 X156.296 Y269.75 E4563.54839
G1 X156.296 Y278.215 E4565.52781
G1 X156.241 Y278.637 E4565.62733
G1 X156.092 Y278.996 E4565.71822
G1 X155.853 Y279.307 E4565.80993
G1 X155.542 Y279.546 E4565.90165
G1 X155.183 Y279.695 E4565.99254
G1 X154.761 Y279.75 E4566.09206
G1 X150.832 Y279.75 E4567.0108
G1 X150.408 Y279.694 E4567.11081
G1 X150.051 Y279.546 E4567.20118
G1 X149.739 Y279.307 E4567.29308
G1 X149.5 Y278.996 E4567.3848
G1 X149.351 Y278.637 E4567.47569
G1 X149.296 Y278.215 E4567.5752
G1 X149.296 Y266.25 E4570.37305
G1 X145.208 Y266.249 E4571.32898
G1 X144.848 Y266.205 E4571.41378
G1 X144.513 Y266.081 E4571.49731
G1 X144.222 Y265.885 E4571.57936
G1 X143.981 Y265.623 E4571.6626
G1 X143.81 Y265.312 E4571.74559
G1 X143.717 Y264.975 E4571.82734
G1 X143.705 Y264.587 E4571.91811
G1 X144.094 Y260.137 E4572.96265
;TIME_ELAPSED:1303.884372
G1 F2400 E4571.46265
M140 S0
M107
G91 ;Relative positioning
G1 E-2 F2700 ;Retract a bit
G1 E-2 Z0.2 F2400 ;Retract and raise Z
G1 X5 Y5 F3000 ;Wipe out
G1 Z10 ;Raise Z more
G90 ;Absolute positioning

G1 X0 Y300 ;Present print
M106 S0 ;Turn-off fan
M104 S0 ;Turn-off hotend
M140 S0 ;Turn-off bed

M84 X Y E ;Disable all steppers but Z

M82 ;absolute extrusion mode
M104 S0
;End of Gcode
;SETTING_3 {"global_quality": "[general]\\nversion = 4\\nname = esun petg vindle
;SETTING_3  \\u00fcst\\ndefinition = creality_cr10\\n\\n[metadata]\\ntype = qual
;SETTING_3 ity_changes\\nquality_type = draft\\nsetting_version = 17\\n\\n[value
;SETTING_3 s]\\nadaptive_layer_height_variation = 0.1\\nadaptive_layer_height_va
;SETTING_3 riation_step = 0.1\\nadhesion_type = skirt\\ndefault_material_bed_tem
;SETTING_3 perature = 90\\nlayer_height = 0.5\\nlayer_height_0 = 0.5\\nmaterial_
;SETTING_3 bed_temperature = 80\\nprint_sequence = one_at_a_time\\nretraction_co
;SETTING_3 mbing = off\\n\\n", "extruder_quality": ["[general]\\nversion = 4\\nn
;SETTING_3 ame = esun petg vindle \\u00fcst\\ndefinition = creality_cr10\\n\\n[m
;SETTING_3 etadata]\\ntype = quality_changes\\nquality_type = draft\\nintent_cat
;SETTING_3 egory = default\\nposition = 0\\nsetting_version = 17\\n\\n[values]\\
;SETTING_3 nacceleration_layer_0 = 200\\nbottom_thickness = 1\\nconnect_skin_pol
;SETTING_3 ygons = True\\ncool_fan_speed = 25\\nfill_outline_gaps = True\\ninfil
;SETTING_3 l_enable_travel_optimization = True\\ninfill_sparse_density = 0\\niro
;SETTING_3 ning_enabled = False\\nironing_flow = 0\\nironing_line_spacing = 1\\n
;SETTING_3 ironing_only_highest_layer = False\\nironing_pattern = concentric\\nj
;SETTING_3 erk_layer_0 = 10\\nlayer_start_x = 0\\nlayer_start_y = 0\\nmaterial_f
;SETTING_3 low = 100\\nmaterial_flow_layer_0 = 105\\nmaterial_initial_print_temp
;SETTING_3 erature = 240\\nmaterial_print_temperature = 240\\nmaterial_print_tem
;SETTING_3 perature_layer_0 = 240\\noptimize_wall_printing_order = True\\nretrac
;SETTING_3 t_at_layer_change = True\\nretraction_amount = 1.5\\nretraction_extra
;SETTING_3 _prime_amount = 4\\nretraction_hop = 0.5\\nretraction_hop_enabled = F
;SETTING_3 alse\\nretraction_speed = 40\\nskin_angles = [135,45]\\nskin_overlap 
;SETTING_3 = 0.0\\nskirt_gap = 1\\nskirt_line_count = 2\\nspeed_layer_0 = =speed
;SETTING_3 _print * 30 / 60\\nspeed_print = 30\\ntop_bottom_pattern = zigzag\\nt
;SETTING_3 op_bottom_pattern_0 = lines\\ntop_bottom_thickness = =layer_height_0+
;SETTING_3 layer_height*3\\ntop_layers = =0 if infill_sparse_density == 100 else
;SETTING_3  math.ceil(round(top_thickness / resolveOrValue('layer_height'), 4))\
;SETTING_3 \ntop_thickness = 2\\nwall_line_count = 1\\nwall_thickness = 1\\nz_se
;SETTING_3 am_corner = z_seam_corner_weighted\\nz_seam_position = backright\\nz_
;SETTING_3 seam_type = back\\nz_seam_x = 150\\nz_seam_y = 150\\nzig_zaggify_infi
;SETTING_3 ll = True\\n\\n"]}
